{"type": "FeatureCollection", "features": [{"type": "Feature", "geometry": {"type": "Point", "coordinates": [-118.32478049417644, 33.56735134225072]}, "properties": {"OBJECTID": 1, "NAME": "Simulated Fire/EMS Station 01", "name": "Simulated Fire/EMS Station 01", "cat2": "Fire and EMS Stations", "resource_type": "fire_ems", "source": "SIMULATED_FALLBACK", "is_simulated": 1}}, {"type": "Feature", "geometry": {"type": "Point", "coordinates": [-118.56267230151033, 33.033935683689]}, "properties": {"OBJECTID": 2, "NAME": "Simulated Fire/EMS Station 02", "name": "Simulated Fire/EMS Station 02", "cat2": "Fire and EMS Stations", "resource_type": "fire_ems", "source": "SIMULATED_FALLBACK", "is_simulated": 1}}, {"type": "Feature", "geometry": {"type": "Point", "coordinates": [-118.27964973841324, 33.03096855349044]}, "properties": {"OBJECTID": 3, "NAME": "Simulated Fire/EMS Station 03", "name": "Simulated Fire/EMS Station 03", "cat2": "Fire and EMS Stations", "resource_type": "fire_ems", "source": "SIMULATED_FALLBACK", "is_simulated": 1}}, {"type": "Feature", "geometry": {"type": "Point", "coordinates": [-117.89199428659424, 33.222263222732366]}, "properties": {"OBJECTID": 4, "NAME": "Simulated Fire/EMS Station 04", "name": "Simulated Fire/EMS Station 04", "cat2": "Fire and EMS Stations", "resource_type": "fire_ems", "source": "SIMULATED_FALLBACK", "is_simulated": 1}}, {"type": "Feature", "geometry": {"type": "Point", "coordinates": [-118.0748454578961, 33.511074940826305]}, "properties": {"OBJECTID": 5, "NAME": "Simulated Fire/EMS Station 05", "name": "Simulated Fire/EMS Station 05", "cat2": "Fire and EMS Stations", "resource_type": "fire_ems", "source": "SIMULATED_FALLBACK", "is_simulated": 1}}, {"type": "Feature", "geometry": {"type": "Point", "coordinates": [-118.3462448448872, 34.737920102840576]}, "properties": {"OBJECTID": 6, "NAME": "Simulated Fire/EMS Station 06", "name": "Simulated Fire/EMS Station 06", "cat2": "Fire and EMS Stations", "resource_type": "fire_ems", "source": "SIMULATED_FALLBACK", "is_simulated": 1}}, {"type": "Feature", "geometry": {"type": "Point", "coordinates": [-118.26503822120732, 33.03006775257544]}, "properties": {"OBJECTID": 7, "NAME": "Simulated Fire/EMS Station 07", "name": "Simulated Fire/EMS Station 07", "cat2": "Fire and EMS Stations", "resource_type": "fire_ems", "source": "SIMULATED_FALLBACK", "is_simulated": 1}}, {"type": "Feature", "geometry": {"type": "Point", "coordinates": [-117.80597845420951, 34.33645170381146]}, "properties": {"OBJECTID": 8, "NAME": "Simulated Fire/EMS Station 08", "name": "Simulated Fire/EMS Station 08", "cat2": "Fire and EMS Stations", "resource_type": "fire_ems", "source": "SIMULATED_FALLBACK", "is_simulated": 1}}, {"type": "Feature", "geometry": {"type": "Point", "coordinates": [-118.13790665538185, 33.0366008746773]}, "properties": {"OBJECTID": 9, "NAME": "Simulated Fire/EMS Station 09", "name": "Simulated Fire/EMS Station 09", "cat2": "Fire and EMS Stations", "resource_type": "fire_ems", "source": "SIMULATED_FALLBACK", "is_simulated": 1}}, {"type": "Feature", "geometry": {"type": "Point", "coordinates": [-117.99663974667783, 34.393968116454985]}, "properties": {"OBJECTID": 10, "NAME": "Simulated Fire/EMS Station 10", "name": "Simulated Fire/EMS Station 10", "cat2": "Fire and EMS Stations", "resource_type": "fire_ems", "source": "SIMULATED_FALLBACK", "is_simulated": 1}}, {"type": "Feature", "geometry": {"type": "Point", "coordinates": [-118.3685362052266, 33.72904822951363]}, "properties": {"OBJECTID": 11, "NAME": "Simulated Fire/EMS Station 11", "name": "Simulated Fire/EMS Station 11", "cat2": "Fire and EMS Stations", "resource_type": "fire_ems", "source": "SIMULATED_FALLBACK", "is_simulated": 1}}, {"type": "Feature", "geometry": {"type": "Point", "coordinates": [-118.85624959364176, 34.48810262109645]}, "properties": {"OBJECTID": 12, "NAME": "Simulated Fire/EMS Station 12", "name": "Simulated Fire/EMS Station 12", "cat2": "Fire and EMS Stations", "resource_type": "fire_ems", "source": "SIMULATED_FALLBACK", "is_simulated": 1}}, {"type": "Feature", "geometry": {"type": "Point", "coordinates": [-118.44119158179461, 33.28933417810289]}, "properties": {"OBJECTID": 13, "NAME": "Simulated Fire/EMS Station 13", "name": "Simulated Fire/EMS Station 13", "cat2": "Fire and EMS Stations", "resource_type": "fire_ems", "source": "SIMULATED_FALLBACK", "is_simulated": 1}}, {"type": "Feature", "geometry": {"type": "Point", "coordinates": [-118.84249995549487, 33.08263674728187]}, "properties": {"OBJECTID": 14, "NAME": "Simulated Fire/EMS Station 14", "name": "Simulated Fire/EMS Station 14", "cat2": "Fire and EMS Stations", "resource_type": "fire_ems", "source": "SIMULATED_FALLBACK", "is_simulated": 1}}, {"type": "Feature", "geometry": {"type": "Point", "coordinates": [-118.64680464285546, 33.09888418239871]}, "properties": {"OBJECTID": 15, "NAME": "Simulated Fire/EMS Station 15", "name": "Simulated Fire/EMS Station 15", "cat2": "Fire and EMS Stations", "resource_type": "fire_ems", "source": "SIMULATED_FALLBACK", "is_simulated": 1}}, {"type": "Feature", "geometry": {"type": "Point", "coordinates": [-118.41367470546595, 34.80126935836116]}, "properties": {"OBJECTID": 16, "NAME": "Simulated Fire/EMS Station 16", "name": "Simulated Fire/EMS Station 16", "cat2": "Fire and EMS Stations", "resource_type": "fire_ems", "source": "SIMULATED_FALLBACK", "is_simulated": 1}}, {"type": "Feature", "geometry": {"type": "Point", "coordinates": [-118.20110706273462, 32.955141958056934]}, "properties": {"OBJECTID": 17, "NAME": "Simulated Fire/EMS Station 17", "name": "Simulated Fire/EMS Station 17", "cat2": "Fire and EMS Stations", "resource_type": "fire_ems", "source": "SIMULATED_FALLBACK", "is_simulated": 1}}, {"type": "Feature", "geometry": {"type": "Point", "coordinates": [-117.72622721782969, 34.44214468646833]}, "properties": {"OBJECTID": 18, "NAME": "Simulated Fire/EMS Station 18", "name": "Simulated Fire/EMS Station 18", "cat2": "Fire and EMS Stations", "resource_type": "fire_ems", "source": "SIMULATED_FALLBACK", "is_simulated": 1}}, {"type": "Feature", "geometry": {"type": "Point", "coordinates": [-118.30908358367645, 33.9757296412582]}, "properties": {"OBJECTID": 19, "NAME": "Simulated Fire/EMS Station 19", "name": "Simulated Fire/EMS Station 19", "cat2": "Fire and EMS Stations", "resource_type": "fire_ems", "source": "SIMULATED_FALLBACK", "is_simulated": 1}}, {"type": "Feature", "geometry": {"type": "Point", "coordinates": [-117.69388957254036, 33.681698239405115]}, "properties": {"OBJECTID": 20, "NAME": "Simulated Fire/EMS Station 20", "name": "Simulated Fire/EMS Station 20", "cat2": "Fire and EMS Stations", "resource_type": "fire_ems", "source": "SIMULATED_FALLBACK", "is_simulated": 1}}, {"type": "Feature", "geometry": {"type": "Point", "coordinates": [-118.40969344107116, 33.74462797098153]}, "properties": {"OBJECTID": 21, "NAME": "Simulated Fire/EMS Station 21", "name": "Simulated Fire/EMS Station 21", "cat2": "Fire and EMS Stations", "resource_type": "fire_ems", "source": "SIMULATED_FALLBACK", "is_simulated": 1}}, {"type": "Feature", "geometry": {"type": "Point", "coordinates": [-118.88676134989109, 33.10474904204694]}, "properties": {"OBJECTID": 22, "NAME": "Simulated Fire/EMS Station 22", "name": "Simulated Fire/EMS Station 22", "cat2": "Fire and EMS Stations", "resource_type": "fire_ems", "source": "SIMULATED_FALLBACK", "is_simulated": 1}}, {"type": "Feature", "geometry": {"type": "Point", "coordinates": [-118.75649146119932, 34.2502037896826]}, "properties": {"OBJECTID": 23, "NAME": "Simulated Fire/EMS Station 23", "name": "Simulated Fire/EMS Station 23", "cat2": "Fire and EMS Stations", "resource_type": "fire_ems", "source": "SIMULATED_FALLBACK", "is_simulated": 1}}, {"type": "Feature", "geometry": {"type": "Point", "coordinates": [-118.54274658772924, 34.72745672800294]}, "properties": {"OBJECTID": 24, "NAME": "Simulated Fire/EMS Station 24", "name": "Simulated Fire/EMS Station 24", "cat2": "Fire and EMS Stations", "resource_type": "fire_ems", "source": "SIMULATED_FALLBACK", "is_simulated": 1}}, {"type": "Feature", "geometry": {"type": "Point", "coordinates": [-118.29512804674343, 33.76018073346342]}, "properties": {"OBJECTID": 25, "NAME": "Simulated Fire/EMS Station 25", "name": "Simulated Fire/EMS Station 25", "cat2": "Fire and EMS Stations", "resource_type": "fire_ems", "source": "SIMULATED_FALLBACK", "is_simulated": 1}}, {"type": "Feature", "geometry": {"type": "Point", "coordinates": [-117.94026062016742, 33.14894180380108]}, "properties": {"OBJECTID": 26, "NAME": "Simulated Fire/EMS Station 26", "name": "Simulated Fire/EMS Station 26", "cat2": "Fire and EMS Stations", "resource_type": "fire_ems", "source": "SIMULATED_FALLBACK", "is_simulated": 1}}, {"type": "Feature", "geometry": {"type": "Point", "coordinates": [-117.69771828878437, 33.41822254186419]}, "properties": {"OBJECTID": 27, "NAME": "Simulated Fire/EMS Station 27", "name": "Simulated Fire/EMS Station 27", "cat2": "Fire and EMS Stations", "resource_type": "fire_ems", "source": "SIMULATED_FALLBACK", "is_simulated": 1}}, {"type": "Feature", "geometry": {"type": "Point", "coordinates": [-118.54799663832702, 33.366985076010515]}, "properties": {"OBJECTID": 28, "NAME": "Simulated Fire/EMS Station 28", "name": "Simulated Fire/EMS Station 28", "cat2": "Fire and EMS Stations", "resource_type": "fire_ems", "source": "SIMULATED_FALLBACK", "is_simulated": 1}}, {"type": "Feature", "geometry": {"type": "Point", "coordinates": [-118.24992081747898, 33.318937456500706]}, "properties": {"OBJECTID": 29, "NAME": "Simulated Fire/EMS Station 29", "name": "Simulated Fire/EMS Station 29", "cat2": "Fire and EMS Stations", "resource_type": "fire_ems", "source": "SIMULATED_FALLBACK", "is_simulated": 1}}, {"type": "Feature", "geometry": {"type": "Point", "coordinates": [-117.73627570590845, 34.15795037453739]}, "properties": {"OBJECTID": 30, "NAME": "Simulated Fire/EMS Station 30", "name": "Simulated Fire/EMS Station 30", "cat2": "Fire and EMS Stations", "resource_type": "fire_ems", "source": "SIMULATED_FALLBACK", "is_simulated": 1}}, {"type": "Feature", "geometry": {"type": "Point", "coordinates": [-117.67560029198269, 33.40415313377248]}, "properties": {"OBJECTID": 31, "NAME": "Simulated Fire/EMS Station 31", "name": "Simulated Fire/EMS Station 31", "cat2": "Fire and EMS Stations", "resource_type": "fire_ems", "source": "SIMULATED_FALLBACK", "is_simulated": 1}}, {"type": "Feature", "geometry": {"type": "Point", "coordinates": [-117.9179235384644, 34.701172377604394]}, "properties": {"OBJECTID": 32, "NAME": "Simulated Fire/EMS Station 32", "name": "Simulated Fire/EMS Station 32", "cat2": "Fire and EMS Stations", "resource_type": "fire_ems", "source": "SIMULATED_FALLBACK", "is_simulated": 1}}, {"type": "Feature", "geometry": {"type": "Point", "coordinates": [-117.82555718807103, 33.34298757768714]}, "properties": {"OBJECTID": 33, "NAME": "Simulated Fire/EMS Station 33", "name": "Simulated Fire/EMS Station 33", "cat2": "Fire and EMS Stations", "resource_type": "fire_ems", "source": "SIMULATED_FALLBACK", "is_simulated": 1}}, {"type": "Feature", "geometry": {"type": "Point", "coordinates": [-118.23593328388813, 34.14322827311963]}, "properties": {"OBJECTID": 34, "NAME": "Simulated Fire/EMS Station 34", "name": "Simulated Fire/EMS Station 34", "cat2": "Fire and EMS Stations", "resource_type": "fire_ems", "source": "SIMULATED_FALLBACK", "is_simulated": 1}}, {"type": "Feature", "geometry": {"type": "Point", "coordinates": [-118.1893618118693, 33.34074391548121]}, "properties": {"OBJECTID": 35, "NAME": "Simulated Fire/EMS Station 35", "name": "Simulated Fire/EMS Station 35", "cat2": "Fire and EMS Stations", "resource_type": "fire_ems", "source": "SIMULATED_FALLBACK", "is_simulated": 1}}, {"type": "Feature", "geometry": {"type": "Point", "coordinates": [-118.5597121354482, 32.84822500995906]}, "properties": {"OBJECTID": 36, "NAME": "Simulated Fire/EMS Station 36", "name": "Simulated Fire/EMS Station 36", "cat2": "Fire and EMS Stations", "resource_type": "fire_ems", "source": "SIMULATED_FALLBACK", "is_simulated": 1}}, {"type": "Feature", "geometry": {"type": "Point", "coordinates": [-117.8601267647264, 33.90380779249841]}, "properties": {"OBJECTID": 37, "NAME": "Simulated Fire/EMS Station 37", "name": "Simulated Fire/EMS Station 37", "cat2": "Fire and EMS Stations", "resource_type": "fire_ems", "source": "SIMULATED_FALLBACK", "is_simulated": 1}}, {"type": "Feature", "geometry": {"type": "Point", "coordinates": [-118.53747977422914, 34.654663626228185]}, "properties": {"OBJECTID": 38, "NAME": "Simulated Fire/EMS Station 38", "name": "Simulated Fire/EMS Station 38", "cat2": "Fire and EMS Stations", "resource_type": "fire_ems", "source": "SIMULATED_FALLBACK", "is_simulated": 1}}, {"type": "Feature", "geometry": {"type": "Point", "coordinates": [-118.02052655807105, 34.29779304540036]}, "properties": {"OBJECTID": 39, "NAME": "Simulated Fire/EMS Station 39", "name": "Simulated Fire/EMS Station 39", "cat2": "Fire and EMS Stations", "resource_type": "fire_ems", "source": "SIMULATED_FALLBACK", "is_simulated": 1}}, {"type": "Feature", "geometry": {"type": "Point", "coordinates": [-118.64342801790687, 34.42259239255096]}, "properties": {"OBJECTID": 40, "NAME": "Simulated Fire/EMS Station 40", "name": "Simulated Fire/EMS Station 40", "cat2": "Fire and EMS Stations", "resource_type": "fire_ems", "source": "SIMULATED_FALLBACK", "is_simulated": 1}}, {"type": "Feature", "geometry": {"type": "Point", "coordinates": [-118.29011266915617, 33.35605257797262]}, "properties": {"OBJECTID": 1, "NAME": "Simulated Hospital 01", "name": "Simulated Hospital 01", "cat2": "Hospitals and Medical Centers", "resource_type": "hospital", "source": "SIMULATED_FALLBACK", "is_simulated": 1}}, {"type": "Feature", "geometry": {"type": "Point", "coordinates": [-118.6545656791858, 33.75881792895031]}, "properties": {"OBJECTID": 2, "NAME": "Simulated Hospital 02", "name": "Simulated Hospital 02", "cat2": "Hospitals and Medical Centers", "resource_type": "hospital", "source": "SIMULATED_FALLBACK", "is_simulated": 1}}, {"type": "Feature", "geometry": {"type": "Point", "coordinates": [-118.79464668395333, 32.856845796769264]}, "properties": {"OBJECTID": 3, "NAME": "Simulated Hospital 03", "name": "Simulated Hospital 03", "cat2": "Hospitals and Medical Centers", "resource_type": "hospital", "source": "SIMULATED_FALLBACK", "is_simulated": 1}}, {"type": "Feature", "geometry": {"type": "Point", "coordinates": [-118.68541086938514, 32.90198777019705]}, "properties": {"OBJECTID": 4, "NAME": "Simulated Hospital 04", "name": "Simulated Hospital 04", "cat2": "Hospitals and Medical Centers", "resource_type": "hospital", "source": "SIMULATED_FALLBACK", "is_simulated": 1}}, {"type": "Feature", "geometry": {"type": "Point", "coordinates": [-117.92855480555899, 33.80463583333454]}, "properties": {"OBJECTID": 5, "NAME": "Simulated Hospital 05", "name": "Simulated Hospital 05", "cat2": "Hospitals and Medical Centers", "resource_type": "hospital", "source": "SIMULATED_FALLBACK", "is_simulated": 1}}, {"type": "Feature", "geometry": {"type": "Point", "coordinates": [-117.98355292677955, 34.34459727055904]}, "properties": {"OBJECTID": 6, "NAME": "Simulated Hospital 06", "name": "Simulated Hospital 06", "cat2": "Hospitals and Medical Centers", "resource_type": "hospital", "source": "SIMULATED_FALLBACK", "is_simulated": 1}}, {"type": "Feature", "geometry": {"type": "Point", "coordinates": [-118.69782723026039, 33.99740149627649]}, "properties": {"OBJECTID": 7, "NAME": "Simulated Hospital 07", "name": "Simulated Hospital 07", "cat2": "Hospitals and Medical Centers", "resource_type": "hospital", "source": "SIMULATED_FALLBACK", "is_simulated": 1}}, {"type": "Feature", "geometry": {"type": "Point", "coordinates": [-118.06086338201912, 34.057009804398]}, "properties": {"OBJECTID": 8, "NAME": "Simulated Hospital 08", "name": "Simulated Hospital 08", "cat2": "Hospitals and Medical Centers", "resource_type": "hospital", "source": "SIMULATED_FALLBACK", "is_simulated": 1}}, {"type": "Feature", "geometry": {"type": "Point", "coordinates": [-118.04995726571894, 33.15524456613069]}, "properties": {"OBJECTID": 9, "NAME": "Simulated Hospital 09", "name": "Simulated Hospital 09", "cat2": "Hospitals and Medical Centers", "resource_type": "hospital", "source": "SIMULATED_FALLBACK", "is_simulated": 1}}, {"type": "Feature", "geometry": {"type": "Point", "coordinates": [-117.67724434212118, 34.29506543835684]}, "properties": {"OBJECTID": 10, "NAME": "Simulated Hospital 10", "name": "Simulated Hospital 10", "cat2": "Hospitals and Medical Centers", "resource_type": "hospital", "source": "SIMULATED_FALLBACK", "is_simulated": 1}}, {"type": "Feature", "geometry": {"type": "Point", "coordinates": [-118.32097570637295, 33.57979318041698]}, "properties": {"OBJECTID": 11, "NAME": "Simulated Hospital 11", "name": "Simulated Hospital 11", "cat2": "Hospitals and Medical Centers", "resource_type": "hospital", "source": "SIMULATED_FALLBACK", "is_simulated": 1}}, {"type": "Feature", "geometry": {"type": "Point", "coordinates": [-118.48311372357499, 33.504554642199814]}, "properties": {"OBJECTID": 12, "NAME": "Simulated Hospital 12", "name": "Simulated Hospital 12", "cat2": "Hospitals and Medical Centers", "resource_type": "hospital", "source": "SIMULATED_FALLBACK", "is_simulated": 1}}, {"type": "Feature", "geometry": {"type": "Point", "coordinates": [-118.52934451646804, 33.67621126074957]}, "properties": {"OBJECTID": 13, "NAME": "Simulated Hospital 13", "name": "Simulated Hospital 13", "cat2": "Hospitals and Medical Centers", "resource_type": "hospital", "source": "SIMULATED_FALLBACK", "is_simulated": 1}}, {"type": "Feature", "geometry": {"type": "Point", "coordinates": [-118.40580344503613, 33.42563378110012]}, "properties": {"OBJECTID": 14, "NAME": "Simulated Hospital 14", "name": "Simulated Hospital 14", "cat2": "Hospitals and Medical Centers", "resource_type": "hospital", "source": "SIMULATED_FALLBACK", "is_simulated": 1}}, {"type": "Feature", "geometry": {"type": "Point", "coordinates": [-118.80121486602182, 33.64991820432952]}, "properties": {"OBJECTID": 15, "NAME": "Simulated Hospital 15", "name": "Simulated Hospital 15", "cat2": "Hospitals and Medical Centers", "resource_type": "hospital", "source": "SIMULATED_FALLBACK", "is_simulated": 1}}, {"type": "Feature", "geometry": {"type": "Point", "coordinates": [-118.31678834708981, 34.35678056460941]}, "properties": {"OBJECTID": 16, "NAME": "Simulated Hospital 16", "name": "Simulated Hospital 16", "cat2": "Hospitals and Medical Centers", "resource_type": "hospital", "source": "SIMULATED_FALLBACK", "is_simulated": 1}}, {"type": "Feature", "geometry": {"type": "Point", "coordinates": [-118.457300781518, 32.853231825908246]}, "properties": {"OBJECTID": 17, "NAME": "Simulated Hospital 17", "name": "Simulated Hospital 17", "cat2": "Hospitals and Medical Centers", "resource_type": "hospital", "source": "SIMULATED_FALLBACK", "is_simulated": 1}}, {"type": "Feature", "geometry": {"type": "Point", "coordinates": [-118.80443515347946, 33.302739997439375]}, "properties": {"OBJECTID": 18, "NAME": "Simulated Hospital 18", "name": "Simulated Hospital 18", "cat2": "Hospitals and Medical Centers", "resource_type": "hospital", "source": "SIMULATED_FALLBACK", "is_simulated": 1}}, {"type": "Feature", "geometry": {"type": "Point", "coordinates": [-118.35050772218655, 34.32102481196624]}, "properties": {"OBJECTID": 19, "NAME": "Simulated Hospital 19", "name": "Simulated Hospital 19", "cat2": "Hospitals and Medical Centers", "resource_type": "hospital", "source": "SIMULATED_FALLBACK", "is_simulated": 1}}, {"type": "Feature", "geometry": {"type": "Point", "coordinates": [-118.4922064739549, 33.931735747622156]}, "properties": {"OBJECTID": 20, "NAME": "Simulated Hospital 20", "name": "Simulated Hospital 20", "cat2": "Hospitals and Medical Centers", "resource_type": "hospital", "source": "SIMULATED_FALLBACK", "is_simulated": 1}}, {"type": "Feature", "geometry": {"type": "Point", "coordinates": [-117.99782342606217, 33.04552743496684]}, "properties": {"OBJECTID": 21, "NAME": "Simulated Hospital 21", "name": "Simulated Hospital 21", "cat2": "Hospitals and Medical Centers", "resource_type": "hospital", "source": "SIMULATED_FALLBACK", "is_simulated": 1}}, {"type": "Feature", "geometry": {"type": "Point", "coordinates": [-117.77047049178604, 33.06772021049277]}, "properties": {"OBJECTID": 22, "NAME": "Simulated Hospital 22", "name": "Simulated Hospital 22", "cat2": "Hospitals and Medical Centers", "resource_type": "hospital", "source": "SIMULATED_FALLBACK", "is_simulated": 1}}, {"type": "Feature", "geometry": {"type": "Point", "coordinates": [-118.90313836855384, 33.23793229322225]}, "properties": {"OBJECTID": 23, "NAME": "Simulated Hospital 23", "name": "Simulated Hospital 23", "cat2": "Hospitals and Medical Centers", "resource_type": "hospital", "source": "SIMULATED_FALLBACK", "is_simulated": 1}}, {"type": "Feature", "geometry": {"type": "Point", "coordinates": [-118.1851044209381, 34.61406642508156]}, "properties": {"OBJECTID": 24, "NAME": "Simulated Hospital 24", "name": "Simulated Hospital 24", "cat2": "Hospitals and Medical Centers", "resource_type": "hospital", "source": "SIMULATED_FALLBACK", "is_simulated": 1}}, {"type": "Feature", "geometry": {"type": "Point", "coordinates": [-117.87650570768021, 34.454421434397965]}, "properties": {"OBJECTID": 25, "NAME": "Simulated Hospital 25", "name": "Simulated Hospital 25", "cat2": "Hospitals and Medical Centers", "resource_type": "hospital", "source": "SIMULATED_FALLBACK", "is_simulated": 1}}]}