{"type": "FeatureCollection", "features": [{"type": "Feature", "geometry": {"type": "Point", "coordinates": [-118.10511382059997, 34.75162288236631]}, "properties": {"OBJECTID": 1, "LS_ID": "SIM-LS-00001", "TYPE": "Debris Flow", "MOVEMENT": "Debris Flow", "CONFIDENCE": "Moderate", "SOURCE": "CGS format simulated fallback", "source": "SIMULATED_FALLBACK", "is_simulated": 1}}, {"type": "Feature", "geometry": {"type": "Point", "coordinates": [-118.77793252636198, 34.29826640995785]}, "properties": {"OBJECTID": 2, "LS_ID": "SIM-LS-00002", "TYPE": "Debris Flow", "MOVEMENT": "Landslide", "CONFIDENCE": "Low", "SOURCE": "CGS format simulated fallback", "source": "SIMULATED_FALLBACK", "is_simulated": 1}}, {"type": "Feature", "geometry": {"type": "Point", "coordinates": [-118.85536904343883, 33.48860833064888]}, "properties": {"OBJECTID": 3, "LS_ID": "SIM-LS-00003", "TYPE": "Landslide", "MOVEMENT": "Rockfall", "CONFIDENCE": "Low", "SOURCE": "CGS format simulated fallback", "source": "SIMULATED_FALLBACK", "is_simulated": 1}}, {"type": "Feature", "geometry": {"type": "Point", "coordinates": [-117.69433755809953, 34.29164473253136]}, "properties": {"OBJECTID": 4, "LS_ID": "SIM-LS-00004", "TYPE": "Landslide", "MOVEMENT": "Debris Flow", "CONFIDENCE": "Low", "SOURCE": "CGS format simulated fallback", "source": "SIMULATED_FALLBACK", "is_simulated": 1}}, {"type": "Feature", "geometry": {"type": "Point", "coordinates": [-117.74309491352095, 34.05527664187721]}, "properties": {"OBJECTID": 5, "LS_ID": "SIM-LS-00005", "TYPE": "Earthflow", "MOVEMENT": "Landslide", "CONFIDENCE": "High", "SOURCE": "CGS format simulated fallback", "source": "SIMULATED_FALLBACK", "is_simulated": 1}}, {"type": "Feature", "geometry": {"type": "Point", "coordinates": [-117.88976159703351, 33.91148964954846]}, "properties": {"OBJECTID": 6, "LS_ID": "SIM-LS-00006", "TYPE": "Debris Flow", "MOVEMENT": "Earthflow", "CONFIDENCE": "High", "SOURCE": "CGS format simulated fallback", "source": "SIMULATED_FALLBACK", "is_simulated": 1}}, {"type": "Feature", "geometry": {"type": "Point", "coordinates": [-117.97079400434741, 33.957722051403756]}, "properties": {"OBJECTID": 7, "LS_ID": "SIM-LS-00007", "TYPE": "Rockfall", "MOVEMENT": "Debris Flow", "CONFIDENCE": "High", "SOURCE": "CGS format simulated fallback", "source": "SIMULATED_FALLBACK", "is_simulated": 1}}, {"type": "Feature", "geometry": {"type": "Point", "coordinates": [-118.90541279886409, 34.275679594839545]}, "properties": {"OBJECTID": 8, "LS_ID": "SIM-LS-00008", "TYPE": "Rockfall", "MOVEMENT": "Earthflow", "CONFIDENCE": "Low", "SOURCE": "CGS format simulated fallback", "source": "SIMULATED_FALLBACK", "is_simulated": 1}}, {"type": "Feature", "geometry": {"type": "Point", "coordinates": [-118.8826622497863, 34.15280819948746]}, "properties": {"OBJECTID": 9, "LS_ID": "SIM-LS-00009", "TYPE": "Rockfall", "MOVEMENT": "Rockfall", "CONFIDENCE": "High", "SOURCE": "CGS format simulated fallback", "source": "SIMULATED_FALLBACK", "is_simulated": 1}}, {"type": "Feature", "geometry": {"type": "Point", "coordinates": [-118.25029278969672, 34.33764147009814]}, "properties": {"OBJECTID": 10, "LS_ID": "SIM-LS-00010", "TYPE": "Debris Flow", "MOVEMENT": "Landslide", "CONFIDENCE": "High", "SOURCE": "CGS format simulated fallback", "source": "SIMULATED_FALLBACK", "is_simulated": 1}}, {"type": "Feature", "geometry": {"type": "Point", "coordinates": [-118.13709912516084, 34.57639399333226]}, "properties": {"OBJECTID": 11, "LS_ID": "SIM-LS-00011", "TYPE": "Landslide", "MOVEMENT": "Earthflow", "CONFIDENCE": "Moderate", "SOURCE": "CGS format simulated fallback", "source": "SIMULATED_FALLBACK", "is_simulated": 1}}, {"type": "Feature", "geometry": {"type": "Point", "coordinates": [-117.8702461987185, 33.627876230489555]}, "properties": {"OBJECTID": 12, "LS_ID": "SIM-LS-00012", "TYPE": "Rockfall", "MOVEMENT": "Rockfall", "CONFIDENCE": "Moderate", "SOURCE": "CGS format simulated fallback", "source": "SIMULATED_FALLBACK", "is_simulated": 1}}, {"type": "Feature", "geometry": {"type": "Point", "coordinates": [-118.60732695638686, 33.97281999543797]}, "properties": {"OBJECTID": 13, "LS_ID": "SIM-LS-00013", "TYPE": "Debris Flow", "MOVEMENT": "Rockfall", "CONFIDENCE": "High", "SOURCE": "CGS format simulated fallback", "source": "SIMULATED_FALLBACK", "is_simulated": 1}}, {"type": "Feature", "geometry": {"type": "Point", "coordinates": [-118.25290809602582, 34.543665500526494]}, "properties": {"OBJECTID": 14, "LS_ID": "SIM-LS-00014", "TYPE": "Earthflow", "MOVEMENT": "Landslide", "CONFIDENCE": "Low", "SOURCE": "CGS format simulated fallback", "source": "SIMULATED_FALLBACK", "is_simulated": 1}}, {"type": "Feature", "geometry": {"type": "Point", "coordinates": [-117.75828134905903, 33.649408036142816]}, "properties": {"OBJECTID": 15, "LS_ID": "SIM-LS-00015", "TYPE": "Rockfall", "MOVEMENT": "Landslide", "CONFIDENCE": "Low", "SOURCE": "CGS format simulated fallback", "source": "SIMULATED_FALLBACK", "is_simulated": 1}}, {"type": "Feature", "geometry": {"type": "Point", "coordinates": [-118.42846608939728, 32.94503266901342]}, "properties": {"OBJECTID": 16, "LS_ID": "SIM-LS-00016", "TYPE": "Earthflow", "MOVEMENT": "Earthflow", "CONFIDENCE": "Low", "SOURCE": "CGS format simulated fallback", "source": "SIMULATED_FALLBACK", "is_simulated": 1}}, {"type": "Feature", "geometry": {"type": "Point", "coordinates": [-117.8060143275672, 34.73989146851578]}, "properties": {"OBJECTID": 17, "LS_ID": "SIM-LS-00017", "TYPE": "Landslide", "MOVEMENT": "Landslide", "CONFIDENCE": "Low", "SOURCE": "CGS format simulated fallback", "source": "SIMULATED_FALLBACK", "is_simulated": 1}}, {"type": "Feature", "geometry": {"type": "Point", "coordinates": [-118.79604999380166, 33.773059560208445]}, "properties": {"OBJECTID": 18, "LS_ID": "SIM-LS-00018", "TYPE": "Debris Flow", "MOVEMENT": "Landslide", "CONFIDENCE": "Low", "SOURCE": "CGS format simulated fallback", "source": "SIMULATED_FALLBACK", "is_simulated": 1}}, {"type": "Feature", "geometry": {"type": "Point", "coordinates": [-118.72853654609477, 33.42503856132562]}, "properties": {"OBJECTID": 19, "LS_ID": "SIM-LS-00019", "TYPE": "Rockfall", "MOVEMENT": "Landslide", "CONFIDENCE": "Moderate", "SOURCE": "CGS format simulated fallback", "source": "SIMULATED_FALLBACK", "is_simulated": 1}}, {"type": "Feature", "geometry": {"type": "Point", "coordinates": [-117.65798645040772, 33.00665621050788]}, "properties": {"OBJECTID": 20, "LS_ID": "SIM-LS-00020", "TYPE": "Landslide", "MOVEMENT": "Rockfall", "CONFIDENCE": "High", "SOURCE": "CGS format simulated fallback", "source": "SIMULATED_FALLBACK", "is_simulated": 1}}, {"type": "Feature", "geometry": {"type": "Point", "coordinates": [-118.87933066951852, 34.11893753026516]}, "properties": {"OBJECTID": 21, "LS_ID": "SIM-LS-00021", "TYPE": "Rockfall", "MOVEMENT": "Landslide", "CONFIDENCE": "High", "SOURCE": "CGS format simulated fallback", "source": "SIMULATED_FALLBACK", "is_simulated": 1}}, {"type": "Feature", "geometry": {"type": "Point", "coordinates": [-117.95830777055559, 33.335777914402435]}, "properties": {"OBJECTID": 22, "LS_ID": "SIM-LS-00022", "TYPE": "Debris Flow", "MOVEMENT": "Debris Flow", "CONFIDENCE": "Low", "SOURCE": "CGS format simulated fallback", "source": "SIMULATED_FALLBACK", "is_simulated": 1}}, {"type": "Feature", "geometry": {"type": "Point", "coordinates": [-117.65367224917311, 33.17511550319491]}, "properties": {"OBJECTID": 23, "LS_ID": "SIM-LS-00023", "TYPE": "Rockfall", "MOVEMENT": "Earthflow", "CONFIDENCE": "Low", "SOURCE": "CGS format simulated fallback", "source": "SIMULATED_FALLBACK", "is_simulated": 1}}, {"type": "Feature", "geometry": {"type": "Point", "coordinates": [-117.80386487032436, 33.47524517190003]}, "properties": {"OBJECTID": 24, "LS_ID": "SIM-LS-00024", "TYPE": "Landslide", "MOVEMENT": "Debris Flow", "CONFIDENCE": "Low", "SOURCE": "CGS format simulated fallback", "source": "SIMULATED_FALLBACK", "is_simulated": 1}}, {"type": "Feature", "geometry": {"type": "Point", "coordinates": [-118.62379643132968, 33.604059356333195]}, "properties": {"OBJECTID": 25, "LS_ID": "SIM-LS-00025", "TYPE": "Debris Flow", "MOVEMENT": "Earthflow", "CONFIDENCE": "Low", "SOURCE": "CGS format simulated fallback", "source": "SIMULATED_FALLBACK", "is_simulated": 1}}, {"type": "Feature", "geometry": {"type": "Point", "coordinates": [-118.49317592719619, 33.299839352044]}, "properties": {"OBJECTID": 26, "LS_ID": "SIM-LS-00026", "TYPE": "Rockfall", "MOVEMENT": "Landslide", "CONFIDENCE": "Low", "SOURCE": "CGS format simulated fallback", "source": "SIMULATED_FALLBACK", "is_simulated": 1}}, {"type": "Feature", "geometry": {"type": "Point", "coordinates": [-118.48074654896946, 33.6190228018509]}, "properties": {"OBJECTID": 27, "LS_ID": "SIM-LS-00027", "TYPE": "Earthflow", "MOVEMENT": "Earthflow", "CONFIDENCE": "Moderate", "SOURCE": "CGS format simulated fallback", "source": "SIMULATED_FALLBACK", "is_simulated": 1}}, {"type": "Feature", "geometry": {"type": "Point", "coordinates": [-117.6955980710984, 33.4125920683069]}, "properties": {"OBJECTID": 28, "LS_ID": "SIM-LS-00028", "TYPE": "Rockfall", "MOVEMENT": "Landslide", "CONFIDENCE": "High", "SOURCE": "CGS format simulated fallback", "source": "SIMULATED_FALLBACK", "is_simulated": 1}}, {"type": "Feature", "geometry": {"type": "Point", "coordinates": [-118.88405030174131, 33.14072383493779]}, "properties": {"OBJECTID": 29, "LS_ID": "SIM-LS-00029", "TYPE": "Debris Flow", "MOVEMENT": "Rockfall", "CONFIDENCE": "High", "SOURCE": "CGS format simulated fallback", "source": "SIMULATED_FALLBACK", "is_simulated": 1}}, {"type": "Feature", "geometry": {"type": "Point", "coordinates": [-118.51737792138039, 34.81002557195708]}, "properties": {"OBJECTID": 30, "LS_ID": "SIM-LS-00030", "TYPE": "Rockfall", "MOVEMENT": "Landslide", "CONFIDENCE": "Moderate", "SOURCE": "CGS format simulated fallback", "source": "SIMULATED_FALLBACK", "is_simulated": 1}}, {"type": "Feature", "geometry": {"type": "Point", "coordinates": [-118.04147182856998, 33.164183984869304]}, "properties": {"OBJECTID": 31, "LS_ID": "SIM-LS-00031", "TYPE": "Debris Flow", "MOVEMENT": "Rockfall", "CONFIDENCE": "High", "SOURCE": "CGS format simulated fallback", "source": "SIMULATED_FALLBACK", "is_simulated": 1}}, {"type": "Feature", "geometry": {"type": "Point", "coordinates": [-118.26372456356786, 34.64459266314365]}, "properties": {"OBJECTID": 32, "LS_ID": "SIM-LS-00032", "TYPE": "Landslide", "MOVEMENT": "Landslide", "CONFIDENCE": "Moderate", "SOURCE": "CGS format simulated fallback", "source": "SIMULATED_FALLBACK", "is_simulated": 1}}, {"type": "Feature", "geometry": {"type": "Point", "coordinates": [-118.49315206795417, 33.40079421624172]}, "properties": {"OBJECTID": 33, "LS_ID": "SIM-LS-00033", "TYPE": "Earthflow", "MOVEMENT": "Earthflow", "CONFIDENCE": "High", "SOURCE": "CGS format simulated fallback", "source": "SIMULATED_FALLBACK", "is_simulated": 1}}, {"type": "Feature", "geometry": {"type": "Point", "coordinates": [-117.78370250097565, 33.183029868572035]}, "properties": {"OBJECTID": 34, "LS_ID": "SIM-LS-00034", "TYPE": "Debris Flow", "MOVEMENT": "Landslide", "CONFIDENCE": "High", "SOURCE": "CGS format simulated fallback", "source": "SIMULATED_FALLBACK", "is_simulated": 1}}, {"type": "Feature", "geometry": {"type": "Point", "coordinates": [-118.09499209909448, 33.9936815506607]}, "properties": {"OBJECTID": 35, "LS_ID": "SIM-LS-00035", "TYPE": "Landslide", "MOVEMENT": "Landslide", "CONFIDENCE": "Moderate", "SOURCE": "CGS format simulated fallback", "source": "SIMULATED_FALLBACK", "is_simulated": 1}}, {"type": "Feature", "geometry": {"type": "Point", "coordinates": [-118.87573428394712, 32.986796636162595]}, "properties": {"OBJECTID": 36, "LS_ID": "SIM-LS-00036", "TYPE": "Earthflow", "MOVEMENT": "Debris Flow", "CONFIDENCE": "Moderate", "SOURCE": "CGS format simulated fallback", "source": "SIMULATED_FALLBACK", "is_simulated": 1}}, {"type": "Feature", "geometry": {"type": "Point", "coordinates": [-118.10459721699114, 34.197957214950684]}, "properties": {"OBJECTID": 37, "LS_ID": "SIM-LS-00037", "TYPE": "Earthflow", "MOVEMENT": "Landslide", "CONFIDENCE": "High", "SOURCE": "CGS format simulated fallback", "source": "SIMULATED_FALLBACK", "is_simulated": 1}}, {"type": "Feature", "geometry": {"type": "Point", "coordinates": [-118.70935977758387, 33.691801675490844]}, "properties": {"OBJECTID": 38, "LS_ID": "SIM-LS-00038", "TYPE": "Debris Flow", "MOVEMENT": "Debris Flow", "CONFIDENCE": "Moderate", "SOURCE": "CGS format simulated fallback", "source": "SIMULATED_FALLBACK", "is_simulated": 1}}, {"type": "Feature", "geometry": {"type": "Point", "coordinates": [-118.88562081171136, 33.617629060813435]}, "properties": {"OBJECTID": 39, "LS_ID": "SIM-LS-00039", "TYPE": "Debris Flow", "MOVEMENT": "Earthflow", "CONFIDENCE": "Low", "SOURCE": "CGS format simulated fallback", "source": "SIMULATED_FALLBACK", "is_simulated": 1}}, {"type": "Feature", "geometry": {"type": "Point", "coordinates": [-118.28224632794489, 33.88045173988586]}, "properties": {"OBJECTID": 40, "LS_ID": "SIM-LS-00040", "TYPE": "Debris Flow", "MOVEMENT": "Rockfall", "CONFIDENCE": "Low", "SOURCE": "CGS format simulated fallback", "source": "SIMULATED_FALLBACK", "is_simulated": 1}}, {"type": "Feature", "geometry": {"type": "Point", "coordinates": [-118.22888919628706, 34.59435408226394]}, "properties": {"OBJECTID": 41, "LS_ID": "SIM-LS-00041", "TYPE": "Earthflow", "MOVEMENT": "Debris Flow", "CONFIDENCE": "High", "SOURCE": "CGS format simulated fallback", "source": "SIMULATED_FALLBACK", "is_simulated": 1}}, {"type": "Feature", "geometry": {"type": "Point", "coordinates": [-118.50078074693924, 32.920687374569056]}, "properties": {"OBJECTID": 42, "LS_ID": "SIM-LS-00042", "TYPE": "Landslide", "MOVEMENT": "Landslide", "CONFIDENCE": "Low", "SOURCE": "CGS format simulated fallback", "source": "SIMULATED_FALLBACK", "is_simulated": 1}}, {"type": "Feature", "geometry": {"type": "Point", "coordinates": [-118.60582604269813, 33.33384160831445]}, "properties": {"OBJECTID": 43, "LS_ID": "SIM-LS-00043", "TYPE": "Landslide", "MOVEMENT": "Debris Flow", "CONFIDENCE": "Low", "SOURCE": "CGS format simulated fallback", "source": "SIMULATED_FALLBACK", "is_simulated": 1}}, {"type": "Feature", "geometry": {"type": "Point", "coordinates": [-118.82474060126805, 33.09728340562082]}, "properties": {"OBJECTID": 44, "LS_ID": "SIM-LS-00044", "TYPE": "Earthflow", "MOVEMENT": "Rockfall", "CONFIDENCE": "Moderate", "SOURCE": "CGS format simulated fallback", "source": "SIMULATED_FALLBACK", "is_simulated": 1}}, {"type": "Feature", "geometry": {"type": "Point", "coordinates": [-118.77662141128444, 33.36592911641736]}, "properties": {"OBJECTID": 45, "LS_ID": "SIM-LS-00045", "TYPE": "Rockfall", "MOVEMENT": "Landslide", "CONFIDENCE": "High", "SOURCE": "CGS format simulated fallback", "source": "SIMULATED_FALLBACK", "is_simulated": 1}}, {"type": "Feature", "geometry": {"type": "Point", "coordinates": [-118.59800672089087, 32.773977302172426]}, "properties": {"OBJECTID": 46, "LS_ID": "SIM-LS-00046", "TYPE": "Earthflow", "MOVEMENT": "Rockfall", "CONFIDENCE": "High", "SOURCE": "CGS format simulated fallback", "source": "SIMULATED_FALLBACK", "is_simulated": 1}}, {"type": "Feature", "geometry": {"type": "Point", "coordinates": [-118.00876612698492, 34.24187100899436]}, "properties": {"OBJECTID": 47, "LS_ID": "SIM-LS-00047", "TYPE": "Rockfall", "MOVEMENT": "Rockfall", "CONFIDENCE": "Moderate", "SOURCE": "CGS format simulated fallback", "source": "SIMULATED_FALLBACK", "is_simulated": 1}}, {"type": "Feature", "geometry": {"type": "Point", "coordinates": [-118.60889682127865, 33.82322691739743]}, "properties": {"OBJECTID": 48, "LS_ID": "SIM-LS-00048", "TYPE": "Earthflow", "MOVEMENT": "Earthflow", "CONFIDENCE": "Low", "SOURCE": "CGS format simulated fallback", "source": "SIMULATED_FALLBACK", "is_simulated": 1}}, {"type": "Feature", "geometry": {"type": "Point", "coordinates": [-118.19968058124239, 34.14676313652436]}, "properties": {"OBJECTID": 49, "LS_ID": "SIM-LS-00049", "TYPE": "Earthflow", "MOVEMENT": "Rockfall", "CONFIDENCE": "High", "SOURCE": "CGS format simulated fallback", "source": "SIMULATED_FALLBACK", "is_simulated": 1}}, {"type": "Feature", "geometry": {"type": "Point", "coordinates": [-118.80047863271389, 33.337910503548876]}, "properties": {"OBJECTID": 50, "LS_ID": "SIM-LS-00050", "TYPE": "Landslide", "MOVEMENT": "Rockfall", "CONFIDENCE": "High", "SOURCE": "CGS format simulated fallback", "source": "SIMULATED_FALLBACK", "is_simulated": 1}}, {"type": "Feature", "geometry": {"type": "Point", "coordinates": [-118.92852949129366, 33.325334771391354]}, "properties": {"OBJECTID": 51, "LS_ID": "SIM-LS-00051", "TYPE": "Earthflow", "MOVEMENT": "Landslide", "CONFIDENCE": "High", "SOURCE": "CGS format simulated fallback", "source": "SIMULATED_FALLBACK", "is_simulated": 1}}, {"type": "Feature", "geometry": {"type": "Point", "coordinates": [-117.9952368864768, 34.48036022672482]}, "properties": {"OBJECTID": 52, "LS_ID": "SIM-LS-00052", "TYPE": "Earthflow", "MOVEMENT": "Landslide", "CONFIDENCE": "High", "SOURCE": "CGS format simulated fallback", "source": "SIMULATED_FALLBACK", "is_simulated": 1}}, {"type": "Feature", "geometry": {"type": "Point", "coordinates": [-118.885218137595, 34.742502083942]}, "properties": {"OBJECTID": 53, "LS_ID": "SIM-LS-00053", "TYPE": "Debris Flow", "MOVEMENT": "Earthflow", "CONFIDENCE": "Low", "SOURCE": "CGS format simulated fallback", "source": "SIMULATED_FALLBACK", "is_simulated": 1}}, {"type": "Feature", "geometry": {"type": "Point", "coordinates": [-118.29227340791185, 33.33660576107995]}, "properties": {"OBJECTID": 54, "LS_ID": "SIM-LS-00054", "TYPE": "Earthflow", "MOVEMENT": "Debris Flow", "CONFIDENCE": "Low", "SOURCE": "CGS format simulated fallback", "source": "SIMULATED_FALLBACK", "is_simulated": 1}}, {"type": "Feature", "geometry": {"type": "Point", "coordinates": [-117.94387167209592, 32.93914609890895]}, "properties": {"OBJECTID": 55, "LS_ID": "SIM-LS-00055", "TYPE": "Rockfall", "MOVEMENT": "Debris Flow", "CONFIDENCE": "Moderate", "SOURCE": "CGS format simulated fallback", "source": "SIMULATED_FALLBACK", "is_simulated": 1}}, {"type": "Feature", "geometry": {"type": "Point", "coordinates": [-118.12754610390098, 34.07724574670652]}, "properties": {"OBJECTID": 56, "LS_ID": "SIM-LS-00056", "TYPE": "Debris Flow", "MOVEMENT": "Earthflow", "CONFIDENCE": "Moderate", "SOURCE": "CGS format simulated fallback", "source": "SIMULATED_FALLBACK", "is_simulated": 1}}, {"type": "Feature", "geometry": {"type": "Point", "coordinates": [-118.07990372419536, 33.114653101663805]}, "properties": {"OBJECTID": 57, "LS_ID": "SIM-LS-00057", "TYPE": "Earthflow", "MOVEMENT": "Rockfall", "CONFIDENCE": "Moderate", "SOURCE": "CGS format simulated fallback", "source": "SIMULATED_FALLBACK", "is_simulated": 1}}, {"type": "Feature", "geometry": {"type": "Point", "coordinates": [-117.7729557084131, 33.188476614087094]}, "properties": {"OBJECTID": 58, "LS_ID": "SIM-LS-00058", "TYPE": "Earthflow", "MOVEMENT": "Landslide", "CONFIDENCE": "Moderate", "SOURCE": "CGS format simulated fallback", "source": "SIMULATED_FALLBACK", "is_simulated": 1}}, {"type": "Feature", "geometry": {"type": "Point", "coordinates": [-118.62685835139459, 34.16300793896413]}, "properties": {"OBJECTID": 59, "LS_ID": "SIM-LS-00059", "TYPE": "Earthflow", "MOVEMENT": "Rockfall", "CONFIDENCE": "Moderate", "SOURCE": "CGS format simulated fallback", "source": "SIMULATED_FALLBACK", "is_simulated": 1}}, {"type": "Feature", "geometry": {"type": "Point", "coordinates": [-118.11706032999227, 34.66910456936496]}, "properties": {"OBJECTID": 60, "LS_ID": "SIM-LS-00060", "TYPE": "Debris Flow", "MOVEMENT": "Earthflow", "CONFIDENCE": "Moderate", "SOURCE": "CGS format simulated fallback", "source": "SIMULATED_FALLBACK", "is_simulated": 1}}, {"type": "Feature", "geometry": {"type": "Point", "coordinates": [-118.2208485954957, 33.281852019730024]}, "properties": {"OBJECTID": 61, "LS_ID": "SIM-LS-00061", "TYPE": "Rockfall", "MOVEMENT": "Debris Flow", "CONFIDENCE": "Moderate", "SOURCE": "CGS format simulated fallback", "source": "SIMULATED_FALLBACK", "is_simulated": 1}}, {"type": "Feature", "geometry": {"type": "Point", "coordinates": [-118.36982551203072, 33.3301226707137]}, "properties": {"OBJECTID": 62, "LS_ID": "SIM-LS-00062", "TYPE": "Debris Flow", "MOVEMENT": "Earthflow", "CONFIDENCE": "Moderate", "SOURCE": "CGS format simulated fallback", "source": "SIMULATED_FALLBACK", "is_simulated": 1}}, {"type": "Feature", "geometry": {"type": "Point", "coordinates": [-118.14350985936107, 33.67387605612745]}, "properties": {"OBJECTID": 63, "LS_ID": "SIM-LS-00063", "TYPE": "Rockfall", "MOVEMENT": "Earthflow", "CONFIDENCE": "Low", "SOURCE": "CGS format simulated fallback", "source": "SIMULATED_FALLBACK", "is_simulated": 1}}, {"type": "Feature", "geometry": {"type": "Point", "coordinates": [-117.87607730471795, 34.10755878767289]}, "properties": {"OBJECTID": 64, "LS_ID": "SIM-LS-00064", "TYPE": "Rockfall", "MOVEMENT": "Earthflow", "CONFIDENCE": "High", "SOURCE": "CGS format simulated fallback", "source": "SIMULATED_FALLBACK", "is_simulated": 1}}, {"type": "Feature", "geometry": {"type": "Point", "coordinates": [-118.19778522532725, 34.12775030733021]}, "properties": {"OBJECTID": 65, "LS_ID": "SIM-LS-00065", "TYPE": "Debris Flow", "MOVEMENT": "Debris Flow", "CONFIDENCE": "Moderate", "SOURCE": "CGS format simulated fallback", "source": "SIMULATED_FALLBACK", "is_simulated": 1}}, {"type": "Feature", "geometry": {"type": "Point", "coordinates": [-117.79738249055795, 33.00215127990033]}, "properties": {"OBJECTID": 66, "LS_ID": "SIM-LS-00066", "TYPE": "Landslide", "MOVEMENT": "Landslide", "CONFIDENCE": "Moderate", "SOURCE": "CGS format simulated fallback", "source": "SIMULATED_FALLBACK", "is_simulated": 1}}, {"type": "Feature", "geometry": {"type": "Point", "coordinates": [-117.94069357174287, 33.18168632081921]}, "properties": {"OBJECTID": 67, "LS_ID": "SIM-LS-00067", "TYPE": "Earthflow", "MOVEMENT": "Rockfall", "CONFIDENCE": "Moderate", "SOURCE": "CGS format simulated fallback", "source": "SIMULATED_FALLBACK", "is_simulated": 1}}, {"type": "Feature", "geometry": {"type": "Point", "coordinates": [-118.47234020111495, 32.758006243526715]}, "properties": {"OBJECTID": 68, "LS_ID": "SIM-LS-00068", "TYPE": "Rockfall", "MOVEMENT": "Earthflow", "CONFIDENCE": "High", "SOURCE": "CGS format simulated fallback", "source": "SIMULATED_FALLBACK", "is_simulated": 1}}, {"type": "Feature", "geometry": {"type": "Point", "coordinates": [-118.4086731667739, 33.08622747438573]}, "properties": {"OBJECTID": 69, "LS_ID": "SIM-LS-00069", "TYPE": "Landslide", "MOVEMENT": "Landslide", "CONFIDENCE": "Moderate", "SOURCE": "CGS format simulated fallback", "source": "SIMULATED_FALLBACK", "is_simulated": 1}}, {"type": "Feature", "geometry": {"type": "Point", "coordinates": [-118.6634937978763, 33.04428224134629]}, "properties": {"OBJECTID": 70, "LS_ID": "SIM-LS-00070", "TYPE": "Debris Flow", "MOVEMENT": "Earthflow", "CONFIDENCE": "Moderate", "SOURCE": "CGS format simulated fallback", "source": "SIMULATED_FALLBACK", "is_simulated": 1}}, {"type": "Feature", "geometry": {"type": "Point", "coordinates": [-117.66666920485508, 33.09638426147219]}, "properties": {"OBJECTID": 71, "LS_ID": "SIM-LS-00071", "TYPE": "Landslide", "MOVEMENT": "Landslide", "CONFIDENCE": "High", "SOURCE": "CGS format simulated fallback", "source": "SIMULATED_FALLBACK", "is_simulated": 1}}, {"type": "Feature", "geometry": {"type": "Point", "coordinates": [-118.92852683503276, 33.370790620286876]}, "properties": {"OBJECTID": 72, "LS_ID": "SIM-LS-00072", "TYPE": "Debris Flow", "MOVEMENT": "Rockfall", "CONFIDENCE": "Low", "SOURCE": "CGS format simulated fallback", "source": "SIMULATED_FALLBACK", "is_simulated": 1}}, {"type": "Feature", "geometry": {"type": "Point", "coordinates": [-118.51713150210995, 33.47595807642524]}, "properties": {"OBJECTID": 73, "LS_ID": "SIM-LS-00073", "TYPE": "Rockfall", "MOVEMENT": "Earthflow", "CONFIDENCE": "High", "SOURCE": "CGS format simulated fallback", "source": "SIMULATED_FALLBACK", "is_simulated": 1}}, {"type": "Feature", "geometry": {"type": "Point", "coordinates": [-118.40843147363428, 34.34020454637415]}, "properties": {"OBJECTID": 74, "LS_ID": "SIM-LS-00074", "TYPE": "Landslide", "MOVEMENT": "Earthflow", "CONFIDENCE": "Moderate", "SOURCE": "CGS format simulated fallback", "source": "SIMULATED_FALLBACK", "is_simulated": 1}}, {"type": "Feature", "geometry": {"type": "Point", "coordinates": [-118.8829834328124, 33.53892185020451]}, "properties": {"OBJECTID": 75, "LS_ID": "SIM-LS-00075", "TYPE": "Debris Flow", "MOVEMENT": "Landslide", "CONFIDENCE": "Moderate", "SOURCE": "CGS format simulated fallback", "source": "SIMULATED_FALLBACK", "is_simulated": 1}}, {"type": "Feature", "geometry": {"type": "Point", "coordinates": [-118.45718739106418, 34.474995639047435]}, "properties": {"OBJECTID": 76, "LS_ID": "SIM-LS-00076", "TYPE": "Debris Flow", "MOVEMENT": "Rockfall", "CONFIDENCE": "Moderate", "SOURCE": "CGS format simulated fallback", "source": "SIMULATED_FALLBACK", "is_simulated": 1}}, {"type": "Feature", "geometry": {"type": "Point", "coordinates": [-118.15062923820858, 34.34634887438973]}, "properties": {"OBJECTID": 77, "LS_ID": "SIM-LS-00077", "TYPE": "Debris Flow", "MOVEMENT": "Landslide", "CONFIDENCE": "Low", "SOURCE": "CGS format simulated fallback", "source": "SIMULATED_FALLBACK", "is_simulated": 1}}, {"type": "Feature", "geometry": {"type": "Point", "coordinates": [-118.68542842735756, 33.12471674810915]}, "properties": {"OBJECTID": 78, "LS_ID": "SIM-LS-00078", "TYPE": "Earthflow", "MOVEMENT": "Rockfall", "CONFIDENCE": "Low", "SOURCE": "CGS format simulated fallback", "source": "SIMULATED_FALLBACK", "is_simulated": 1}}, {"type": "Feature", "geometry": {"type": "Point", "coordinates": [-118.7561035614496, 33.33862807362953]}, "properties": {"OBJECTID": 79, "LS_ID": "SIM-LS-00079", "TYPE": "Earthflow", "MOVEMENT": "Earthflow", "CONFIDENCE": "Low", "SOURCE": "CGS format simulated fallback", "source": "SIMULATED_FALLBACK", "is_simulated": 1}}, {"type": "Feature", "geometry": {"type": "Point", "coordinates": [-118.94855929995597, 33.285081278398366]}, "properties": {"OBJECTID": 80, "LS_ID": "SIM-LS-00080", "TYPE": "Rockfall", "MOVEMENT": "Earthflow", "CONFIDENCE": "Low", "SOURCE": "CGS format simulated fallback", "source": "SIMULATED_FALLBACK", "is_simulated": 1}}]}