{"type": "FeatureCollection", "features": [{"type": "Feature", "geometry": {"type": "Polygon", "coordinates": [[[-118.95, 32.75], [-118.85791666666667, 32.75], [-118.85791666666667, 32.9268], [-118.95, 32.9268], [-118.95, 32.75]]]}, "properties": {"GEOID": "SIM06037000000", "FIPS": "06037000000", "LOCATION": "Simulated LA County tract 000", "E_TOTPOP": 7410, "EP_POV150": 21.61, "EP_UNEMP": 11.42, "EP_AGE65": 7.22, "EP_DISABL": 16.22, "RPL_THEMES": 0.3544, "SPL_THEMES": 6.997, "source": "SIMULATED_FALLBACK", "is_simulated": 1}}, {"type": "Feature", "geometry": {"type": "Polygon", "coordinates": [[[-118.84166666666667, 32.75], [-118.74958333333333, 32.75], [-118.74958333333333, 32.9268], [-118.84166666666667, 32.9268], [-118.84166666666667, 32.75]]]}, "properties": {"GEOID": "SIM06037000001", "FIPS": "06037000001", "LOCATION": "Simulated LA County tract 001", "E_TOTPOP": 7930, "EP_POV150": 19.54, "EP_UNEMP": 15.25, "EP_AGE65": 10.65, "EP_DISABL": 20.93, "RPL_THEMES": 0.8794, "SPL_THEMES": 9.476, "source": "SIMULATED_FALLBACK", "is_simulated": 1}}, {"type": "Feature", "geometry": {"type": "Polygon", "coordinates": [[[-118.73333333333333, 32.75], [-118.64125, 32.75], [-118.64125, 32.9268], [-118.73333333333333, 32.9268], [-118.73333333333333, 32.75]]]}, "properties": {"GEOID": "SIM06037000002", "FIPS": "06037000002", "LOCATION": "Simulated LA County tract 002", "E_TOTPOP": 5297, "EP_POV150": 20.02, "EP_UNEMP": 10.01, "EP_AGE65": 6.54, "EP_DISABL": 16.85, "RPL_THEMES": 0.1115, "SPL_THEMES": 5.981, "source": "SIMULATED_FALLBACK", "is_simulated": 1}}, {"type": "Feature", "geometry": {"type": "Polygon", "coordinates": [[[-118.625, 32.75], [-118.53291666666667, 32.75], [-118.53291666666667, 32.9268], [-118.625, 32.9268], [-118.625, 32.75]]]}, "properties": {"GEOID": "SIM06037000003", "FIPS": "06037000003", "LOCATION": "Simulated LA County tract 003", "E_TOTPOP": 2439, "EP_POV150": 19.73, "EP_UNEMP": 14.42, "EP_AGE65": 14.63, "EP_DISABL": 19.32, "RPL_THEMES": 0.226, "SPL_THEMES": 9.645, "source": "SIMULATED_FALLBACK", "is_simulated": 1}}, {"type": "Feature", "geometry": {"type": "Polygon", "coordinates": [[[-118.51666666666667, 32.75], [-118.42458333333333, 32.75], [-118.42458333333333, 32.9268], [-118.51666666666667, 32.9268], [-118.51666666666667, 32.75]]]}, "properties": {"GEOID": "SIM06037000004", "FIPS": "06037000004", "LOCATION": "Simulated LA County tract 004", "E_TOTPOP": 5253, "EP_POV150": 8.01, "EP_UNEMP": 14.87, "EP_AGE65": 25.18, "EP_DISABL": 8.39, "RPL_THEMES": 0.804, "SPL_THEMES": 9.403, "source": "SIMULATED_FALLBACK", "is_simulated": 1}}, {"type": "Feature", "geometry": {"type": "Polygon", "coordinates": [[[-118.40833333333333, 32.75], [-118.31625, 32.75], [-118.31625, 32.9268], [-118.40833333333333, 32.9268], [-118.40833333333333, 32.75]]]}, "properties": {"GEOID": "SIM06037000005", "FIPS": "06037000005", "LOCATION": "Simulated LA County tract 005", "E_TOTPOP": 4397, "EP_POV150": 27.29, "EP_UNEMP": 9.17, "EP_AGE65": 7.74, "EP_DISABL": 17.44, "RPL_THEMES": 0.7834, "SPL_THEMES": 6.593, "source": "SIMULATED_FALLBACK", "is_simulated": 1}}, {"type": "Feature", "geometry": {"type": "Polygon", "coordinates": [[[-118.30000000000001, 32.75], [-118.20791666666668, 32.75], [-118.20791666666668, 32.9268], [-118.30000000000001, 32.9268], [-118.30000000000001, 32.75]]]}, "properties": {"GEOID": "SIM06037000006", "FIPS": "06037000006", "LOCATION": "Simulated LA County tract 006", "E_TOTPOP": 3753, "EP_POV150": 5.96, "EP_UNEMP": 16.58, "EP_AGE65": 9.78, "EP_DISABL": 18.29, "RPL_THEMES": 0.3261, "SPL_THEMES": 7.765, "source": "SIMULATED_FALLBACK", "is_simulated": 1}}, {"type": "Feature", "geometry": {"type": "Polygon", "coordinates": [[[-118.19166666666668, 32.75], [-118.09958333333334, 32.75], [-118.09958333333334, 32.9268], [-118.19166666666668, 32.9268], [-118.19166666666668, 32.75]]]}, "properties": {"GEOID": "SIM06037000007", "FIPS": "06037000007", "LOCATION": "Simulated LA County tract 007", "E_TOTPOP": 7077, "EP_POV150": 15.08, "EP_UNEMP": 4.09, "EP_AGE65": 23.44, "EP_DISABL": 18.33, "RPL_THEMES": 0.8709, "SPL_THEMES": 1.727, "source": "SIMULATED_FALLBACK", "is_simulated": 1}}, {"type": "Feature", "geometry": {"type": "Polygon", "coordinates": [[[-118.08333333333334, 32.75], [-117.99125000000001, 32.75], [-117.99125000000001, 32.9268], [-118.08333333333334, 32.9268], [-118.08333333333334, 32.75]]]}, "properties": {"GEOID": "SIM06037000008", "FIPS": "06037000008", "LOCATION": "Simulated LA County tract 008", "E_TOTPOP": 6686, "EP_POV150": 7.01, "EP_UNEMP": 17.4, "EP_AGE65": 16.93, "EP_DISABL": 16.77, "RPL_THEMES": 0.1802, "SPL_THEMES": 0.319, "source": "SIMULATED_FALLBACK", "is_simulated": 1}}, {"type": "Feature", "geometry": {"type": "Polygon", "coordinates": [[[-117.97500000000001, 32.75], [-117.88291666666667, 32.75], [-117.88291666666667, 32.9268], [-117.97500000000001, 32.9268], [-117.97500000000001, 32.75]]]}, "properties": {"GEOID": "SIM06037000009", "FIPS": "06037000009", "LOCATION": "Simulated LA County tract 009", "E_TOTPOP": 7095, "EP_POV150": 7.21, "EP_UNEMP": 3.24, "EP_AGE65": 6.52, "EP_DISABL": 8.11, "RPL_THEMES": 0.0718, "SPL_THEMES": 5.745, "source": "SIMULATED_FALLBACK", "is_simulated": 1}}, {"type": "Feature", "geometry": {"type": "Polygon", "coordinates": [[[-117.86666666666667, 32.75], [-117.77458333333334, 32.75], [-117.77458333333334, 32.9268], [-117.86666666666667, 32.9268], [-117.86666666666667, 32.75]]]}, "properties": {"GEOID": "SIM06037000010", "FIPS": "06037000010", "LOCATION": "Simulated LA County tract 010", "E_TOTPOP": 3295, "EP_POV150": 9.62, "EP_UNEMP": 17.29, "EP_AGE65": 16.9, "EP_DISABL": 10.97, "RPL_THEMES": 0.6596, "SPL_THEMES": 10.726, "source": "SIMULATED_FALLBACK", "is_simulated": 1}}, {"type": "Feature", "geometry": {"type": "Polygon", "coordinates": [[[-117.75833333333334, 32.75], [-117.66625, 32.75], [-117.66625, 32.9268], [-117.75833333333334, 32.9268], [-117.75833333333334, 32.75]]]}, "properties": {"GEOID": "SIM06037000011", "FIPS": "06037000011", "LOCATION": "Simulated LA County tract 011", "E_TOTPOP": 2800, "EP_POV150": 33.14, "EP_UNEMP": 16.31, "EP_AGE65": 25.2, "EP_DISABL": 9.2, "RPL_THEMES": 0.6796, "SPL_THEMES": 5.55, "source": "SIMULATED_FALLBACK", "is_simulated": 1}}, {"type": "Feature", "geometry": {"type": "Polygon", "coordinates": [[[-118.95, 32.958], [-118.85791666666667, 32.958], [-118.85791666666667, 33.1348], [-118.95, 33.1348], [-118.95, 32.958]]]}, "properties": {"GEOID": "SIM06037000012", "FIPS": "06037000012", "LOCATION": "Simulated LA County tract 012", "E_TOTPOP": 5766, "EP_POV150": 31.89, "EP_UNEMP": 2.28, "EP_AGE65": 7.78, "EP_DISABL": 12.35, "RPL_THEMES": 0.5546, "SPL_THEMES": 3.889, "source": "SIMULATED_FALLBACK", "is_simulated": 1}}, {"type": "Feature", "geometry": {"type": "Polygon", "coordinates": [[[-118.84166666666667, 32.958], [-118.74958333333333, 32.958], [-118.74958333333333, 33.1348], [-118.84166666666667, 33.1348], [-118.84166666666667, 32.958]]]}, "properties": {"GEOID": "SIM06037000013", "FIPS": "06037000013", "LOCATION": "Simulated LA County tract 013", "E_TOTPOP": 5694, "EP_POV150": 32.16, "EP_UNEMP": 9.99, "EP_AGE65": 26.1, "EP_DISABL": 16.72, "RPL_THEMES": 0.7519, "SPL_THEMES": 2.329, "source": "SIMULATED_FALLBACK", "is_simulated": 1}}, {"type": "Feature", "geometry": {"type": "Polygon", "coordinates": [[[-118.73333333333333, 32.958], [-118.64125, 32.958], [-118.64125, 33.1348], [-118.73333333333333, 33.1348], [-118.73333333333333, 32.958]]]}, "properties": {"GEOID": "SIM06037000014", "FIPS": "06037000014", "LOCATION": "Simulated LA County tract 014", "E_TOTPOP": 4017, "EP_POV150": 4.27, "EP_UNEMP": 12.3, "EP_AGE65": 22.12, "EP_DISABL": 7.07, "RPL_THEMES": 0.2455, "SPL_THEMES": 5.287, "source": "SIMULATED_FALLBACK", "is_simulated": 1}}, {"type": "Feature", "geometry": {"type": "Polygon", "coordinates": [[[-118.625, 32.958], [-118.53291666666667, 32.958], [-118.53291666666667, 33.1348], [-118.625, 33.1348], [-118.625, 32.958]]]}, "properties": {"GEOID": "SIM06037000015", "FIPS": "06037000015", "LOCATION": "Simulated LA County tract 015", "E_TOTPOP": 7076, "EP_POV150": 21.53, "EP_UNEMP": 4.94, "EP_AGE65": 7.68, "EP_DISABL": 18.73, "RPL_THEMES": 0.6426, "SPL_THEMES": 6.617, "source": "SIMULATED_FALLBACK", "is_simulated": 1}}, {"type": "Feature", "geometry": {"type": "Polygon", "coordinates": [[[-118.51666666666667, 32.958], [-118.42458333333333, 32.958], [-118.42458333333333, 33.1348], [-118.51666666666667, 33.1348], [-118.51666666666667, 32.958]]]}, "properties": {"GEOID": "SIM06037000016", "FIPS": "06037000016", "LOCATION": "Simulated LA County tract 016", "E_TOTPOP": 4533, "EP_POV150": 17.17, "EP_UNEMP": 17.81, "EP_AGE65": 24.96, "EP_DISABL": 14.39, "RPL_THEMES": 0.6464, "SPL_THEMES": 11.511, "source": "SIMULATED_FALLBACK", "is_simulated": 1}}, {"type": "Feature", "geometry": {"type": "Polygon", "coordinates": [[[-118.40833333333333, 32.958], [-118.31625, 32.958], [-118.31625, 33.1348], [-118.40833333333333, 33.1348], [-118.40833333333333, 32.958]]]}, "properties": {"GEOID": "SIM06037000017", "FIPS": "06037000017", "LOCATION": "Simulated LA County tract 017", "E_TOTPOP": 2120, "EP_POV150": 11.15, "EP_UNEMP": 17.73, "EP_AGE65": 26.81, "EP_DISABL": 10.29, "RPL_THEMES": 0.7005, "SPL_THEMES": 1.52, "source": "SIMULATED_FALLBACK", "is_simulated": 1}}, {"type": "Feature", "geometry": {"type": "Polygon", "coordinates": [[[-118.30000000000001, 32.958], [-118.20791666666668, 32.958], [-118.20791666666668, 33.1348], [-118.30000000000001, 33.1348], [-118.30000000000001, 32.958]]]}, "properties": {"GEOID": "SIM06037000018", "FIPS": "06037000018", "LOCATION": "Simulated LA County tract 018", "E_TOTPOP": 4296, "EP_POV150": 6.79, "EP_UNEMP": 3.6, "EP_AGE65": 23.46, "EP_DISABL": 13.54, "RPL_THEMES": 0.6539, "SPL_THEMES": 0.99, "source": "SIMULATED_FALLBACK", "is_simulated": 1}}, {"type": "Feature", "geometry": {"type": "Polygon", "coordinates": [[[-118.19166666666668, 32.958], [-118.09958333333334, 32.958], [-118.09958333333334, 33.1348], [-118.19166666666668, 33.1348], [-118.19166666666668, 32.958]]]}, "properties": {"GEOID": "SIM06037000019", "FIPS": "06037000019", "LOCATION": "Simulated LA County tract 019", "E_TOTPOP": 7552, "EP_POV150": 18.05, "EP_UNEMP": 7.77, "EP_AGE65": 21.64, "EP_DISABL": 4.64, "RPL_THEMES": 0.3414, "SPL_THEMES": 7.693, "source": "SIMULATED_FALLBACK", "is_simulated": 1}}, {"type": "Feature", "geometry": {"type": "Polygon", "coordinates": [[[-118.08333333333334, 32.958], [-117.99125000000001, 32.958], [-117.99125000000001, 33.1348], [-118.08333333333334, 33.1348], [-118.08333333333334, 32.958]]]}, "properties": {"GEOID": "SIM06037000020", "FIPS": "06037000020", "LOCATION": "Simulated LA County tract 020", "E_TOTPOP": 2239, "EP_POV150": 8.11, "EP_UNEMP": 4.63, "EP_AGE65": 10.28, "EP_DISABL": 8.49, "RPL_THEMES": 0.1697, "SPL_THEMES": 8.324, "source": "SIMULATED_FALLBACK", "is_simulated": 1}}, {"type": "Feature", "geometry": {"type": "Polygon", "coordinates": [[[-117.97500000000001, 32.958], [-117.88291666666667, 32.958], [-117.88291666666667, 33.1348], [-117.97500000000001, 33.1348], [-117.97500000000001, 32.958]]]}, "properties": {"GEOID": "SIM06037000021", "FIPS": "06037000021", "LOCATION": "Simulated LA County tract 021", "E_TOTPOP": 6325, "EP_POV150": 9.29, "EP_UNEMP": 3.02, "EP_AGE65": 12.8, "EP_DISABL": 10.44, "RPL_THEMES": 0.1466, "SPL_THEMES": 0.584, "source": "SIMULATED_FALLBACK", "is_simulated": 1}}, {"type": "Feature", "geometry": {"type": "Polygon", "coordinates": [[[-117.86666666666667, 32.958], [-117.77458333333334, 32.958], [-117.77458333333334, 33.1348], [-117.86666666666667, 33.1348], [-117.86666666666667, 32.958]]]}, "properties": {"GEOID": "SIM06037000022", "FIPS": "06037000022", "LOCATION": "Simulated LA County tract 022", "E_TOTPOP": 1174, "EP_POV150": 6.31, "EP_UNEMP": 14.16, "EP_AGE65": 18.36, "EP_DISABL": 12.09, "RPL_THEMES": 0.7038, "SPL_THEMES": 5.268, "source": "SIMULATED_FALLBACK", "is_simulated": 1}}, {"type": "Feature", "geometry": {"type": "Polygon", "coordinates": [[[-117.75833333333334, 32.958], [-117.66625, 32.958], [-117.66625, 33.1348], [-117.75833333333334, 33.1348], [-117.75833333333334, 32.958]]]}, "properties": {"GEOID": "SIM06037000023", "FIPS": "06037000023", "LOCATION": "Simulated LA County tract 023", "E_TOTPOP": 3017, "EP_POV150": 11.66, "EP_UNEMP": 14.08, "EP_AGE65": 23.23, "EP_DISABL": 17.41, "RPL_THEMES": 0.2744, "SPL_THEMES": 7.403, "source": "SIMULATED_FALLBACK", "is_simulated": 1}}, {"type": "Feature", "geometry": {"type": "Polygon", "coordinates": [[[-118.95, 33.166], [-118.85791666666667, 33.166], [-118.85791666666667, 33.3428], [-118.95, 33.3428], [-118.95, 33.166]]]}, "properties": {"GEOID": "SIM06037000024", "FIPS": "06037000024", "LOCATION": "Simulated LA County tract 024", "E_TOTPOP": 7532, "EP_POV150": 16.6, "EP_UNEMP": 2.69, "EP_AGE65": 14.04, "EP_DISABL": 4.28, "RPL_THEMES": 0.2357, "SPL_THEMES": 1.419, "source": "SIMULATED_FALLBACK", "is_simulated": 1}}, {"type": "Feature", "geometry": {"type": "Polygon", "coordinates": [[[-118.84166666666667, 33.166], [-118.74958333333333, 33.166], [-118.74958333333333, 33.3428], [-118.84166666666667, 33.3428], [-118.84166666666667, 33.166]]]}, "properties": {"GEOID": "SIM06037000025", "FIPS": "06037000025", "LOCATION": "Simulated LA County tract 025", "E_TOTPOP": 7782, "EP_POV150": 16.65, "EP_UNEMP": 6.44, "EP_AGE65": 9.2, "EP_DISABL": 7.4, "RPL_THEMES": 0.5428, "SPL_THEMES": 9.508, "source": "SIMULATED_FALLBACK", "is_simulated": 1}}, {"type": "Feature", "geometry": {"type": "Polygon", "coordinates": [[[-118.73333333333333, 33.166], [-118.64125, 33.166], [-118.64125, 33.3428], [-118.73333333333333, 33.3428], [-118.73333333333333, 33.166]]]}, "properties": {"GEOID": "SIM06037000026", "FIPS": "06037000026", "LOCATION": "Simulated LA County tract 026", "E_TOTPOP": 6303, "EP_POV150": 34.14, "EP_UNEMP": 4.4, "EP_AGE65": 12.93, "EP_DISABL": 11.73, "RPL_THEMES": 0.5774, "SPL_THEMES": 4.862, "source": "SIMULATED_FALLBACK", "is_simulated": 1}}, {"type": "Feature", "geometry": {"type": "Polygon", "coordinates": [[[-118.625, 33.166], [-118.53291666666667, 33.166], [-118.53291666666667, 33.3428], [-118.625, 33.3428], [-118.625, 33.166]]]}, "properties": {"GEOID": "SIM06037000027", "FIPS": "06037000027", "LOCATION": "Simulated LA County tract 027", "E_TOTPOP": 2761, "EP_POV150": 31.03, "EP_UNEMP": 3.12, "EP_AGE65": 22.19, "EP_DISABL": 20.85, "RPL_THEMES": 0.6286, "SPL_THEMES": 7.729, "source": "SIMULATED_FALLBACK", "is_simulated": 1}}, {"type": "Feature", "geometry": {"type": "Polygon", "coordinates": [[[-118.51666666666667, 33.166], [-118.42458333333333, 33.166], [-118.42458333333333, 33.3428], [-118.51666666666667, 33.3428], [-118.51666666666667, 33.166]]]}, "properties": {"GEOID": "SIM06037000028", "FIPS": "06037000028", "LOCATION": "Simulated LA County tract 028", "E_TOTPOP": 6576, "EP_POV150": 20.0, "EP_UNEMP": 10.22, "EP_AGE65": 19.26, "EP_DISABL": 18.54, "RPL_THEMES": 0.4072, "SPL_THEMES": 8.485, "source": "SIMULATED_FALLBACK", "is_simulated": 1}}, {"type": "Feature", "geometry": {"type": "Polygon", "coordinates": [[[-118.40833333333333, 33.166], [-118.31625, 33.166], [-118.31625, 33.3428], [-118.40833333333333, 33.3428], [-118.40833333333333, 33.166]]]}, "properties": {"GEOID": "SIM06037000029", "FIPS": "06037000029", "LOCATION": "Simulated LA County tract 029", "E_TOTPOP": 6806, "EP_POV150": 34.28, "EP_UNEMP": 16.39, "EP_AGE65": 14.72, "EP_DISABL": 11.7, "RPL_THEMES": 0.139, "SPL_THEMES": 3.515, "source": "SIMULATED_FALLBACK", "is_simulated": 1}}, {"type": "Feature", "geometry": {"type": "Polygon", "coordinates": [[[-118.30000000000001, 33.166], [-118.20791666666668, 33.166], [-118.20791666666668, 33.3428], [-118.30000000000001, 33.3428], [-118.30000000000001, 33.166]]]}, "properties": {"GEOID": "SIM06037000030", "FIPS": "06037000030", "LOCATION": "Simulated LA County tract 030", "E_TOTPOP": 3210, "EP_POV150": 33.81, "EP_UNEMP": 12.15, "EP_AGE65": 11.94, "EP_DISABL": 16.96, "RPL_THEMES": 0.1366, "SPL_THEMES": 8.128, "source": "SIMULATED_FALLBACK", "is_simulated": 1}}, {"type": "Feature", "geometry": {"type": "Polygon", "coordinates": [[[-118.19166666666668, 33.166], [-118.09958333333334, 33.166], [-118.09958333333334, 33.3428], [-118.19166666666668, 33.3428], [-118.19166666666668, 33.166]]]}, "properties": {"GEOID": "SIM06037000031", "FIPS": "06037000031", "LOCATION": "Simulated LA County tract 031", "E_TOTPOP": 5780, "EP_POV150": 3.06, "EP_UNEMP": 2.58, "EP_AGE65": 23.83, "EP_DISABL": 6.66, "RPL_THEMES": 0.9557, "SPL_THEMES": 5.798, "source": "SIMULATED_FALLBACK", "is_simulated": 1}}, {"type": "Feature", "geometry": {"type": "Polygon", "coordinates": [[[-118.08333333333334, 33.166], [-117.99125000000001, 33.166], [-117.99125000000001, 33.3428], [-118.08333333333334, 33.3428], [-118.08333333333334, 33.166]]]}, "properties": {"GEOID": "SIM06037000032", "FIPS": "06037000032", "LOCATION": "Simulated LA County tract 032", "E_TOTPOP": 2566, "EP_POV150": 18.96, "EP_UNEMP": 5.78, "EP_AGE65": 26.29, "EP_DISABL": 21.19, "RPL_THEMES": 0.9304, "SPL_THEMES": 4.224, "source": "SIMULATED_FALLBACK", "is_simulated": 1}}, {"type": "Feature", "geometry": {"type": "Polygon", "coordinates": [[[-117.97500000000001, 33.166], [-117.88291666666667, 33.166], [-117.88291666666667, 33.3428], [-117.97500000000001, 33.3428], [-117.97500000000001, 33.166]]]}, "properties": {"GEOID": "SIM06037000033", "FIPS": "06037000033", "LOCATION": "Simulated LA County tract 033", "E_TOTPOP": 2102, "EP_POV150": 28.79, "EP_UNEMP": 13.9, "EP_AGE65": 10.71, "EP_DISABL": 17.97, "RPL_THEMES": 0.7497, "SPL_THEMES": 10.36, "source": "SIMULATED_FALLBACK", "is_simulated": 1}}, {"type": "Feature", "geometry": {"type": "Polygon", "coordinates": [[[-117.86666666666667, 33.166], [-117.77458333333334, 33.166], [-117.77458333333334, 33.3428], [-117.86666666666667, 33.3428], [-117.86666666666667, 33.166]]]}, "properties": {"GEOID": "SIM06037000034", "FIPS": "06037000034", "LOCATION": "Simulated LA County tract 034", "E_TOTPOP": 3409, "EP_POV150": 27.89, "EP_UNEMP": 7.22, "EP_AGE65": 17.22, "EP_DISABL": 11.31, "RPL_THEMES": 0.0102, "SPL_THEMES": 2.634, "source": "SIMULATED_FALLBACK", "is_simulated": 1}}, {"type": "Feature", "geometry": {"type": "Polygon", "coordinates": [[[-117.75833333333334, 33.166], [-117.66625, 33.166], [-117.66625, 33.3428], [-117.75833333333334, 33.3428], [-117.75833333333334, 33.166]]]}, "properties": {"GEOID": "SIM06037000035", "FIPS": "06037000035", "LOCATION": "Simulated LA County tract 035", "E_TOTPOP": 2360, "EP_POV150": 10.71, "EP_UNEMP": 6.72, "EP_AGE65": 23.99, "EP_DISABL": 17.13, "RPL_THEMES": 0.3191, "SPL_THEMES": 10.851, "source": "SIMULATED_FALLBACK", "is_simulated": 1}}, {"type": "Feature", "geometry": {"type": "Polygon", "coordinates": [[[-118.95, 33.374], [-118.85791666666667, 33.374], [-118.85791666666667, 33.5508], [-118.95, 33.5508], [-118.95, 33.374]]]}, "properties": {"GEOID": "SIM06037000036", "FIPS": "06037000036", "LOCATION": "Simulated LA County tract 036", "E_TOTPOP": 4510, "EP_POV150": 24.75, "EP_UNEMP": 14.33, "EP_AGE65": 15.9, "EP_DISABL": 6.12, "RPL_THEMES": 0.0165, "SPL_THEMES": 4.385, "source": "SIMULATED_FALLBACK", "is_simulated": 1}}, {"type": "Feature", "geometry": {"type": "Polygon", "coordinates": [[[-118.84166666666667, 33.374], [-118.74958333333333, 33.374], [-118.74958333333333, 33.5508], [-118.84166666666667, 33.5508], [-118.84166666666667, 33.374]]]}, "properties": {"GEOID": "SIM06037000037", "FIPS": "06037000037", "LOCATION": "Simulated LA County tract 037", "E_TOTPOP": 7805, "EP_POV150": 25.95, "EP_UNEMP": 5.74, "EP_AGE65": 19.0, "EP_DISABL": 11.86, "RPL_THEMES": 0.157, "SPL_THEMES": 1.672, "source": "SIMULATED_FALLBACK", "is_simulated": 1}}, {"type": "Feature", "geometry": {"type": "Polygon", "coordinates": [[[-118.73333333333333, 33.374], [-118.64125, 33.374], [-118.64125, 33.5508], [-118.73333333333333, 33.5508], [-118.73333333333333, 33.374]]]}, "properties": {"GEOID": "SIM06037000038", "FIPS": "06037000038", "LOCATION": "Simulated LA County tract 038", "E_TOTPOP": 2489, "EP_POV150": 27.62, "EP_UNEMP": 6.58, "EP_AGE65": 11.34, "EP_DISABL": 13.08, "RPL_THEMES": 0.6919, "SPL_THEMES": 3.672, "source": "SIMULATED_FALLBACK", "is_simulated": 1}}, {"type": "Feature", "geometry": {"type": "Polygon", "coordinates": [[[-118.625, 33.374], [-118.53291666666667, 33.374], [-118.53291666666667, 33.5508], [-118.625, 33.5508], [-118.625, 33.374]]]}, "properties": {"GEOID": "SIM06037000039", "FIPS": "06037000039", "LOCATION": "Simulated LA County tract 039", "E_TOTPOP": 5871, "EP_POV150": 34.72, "EP_UNEMP": 6.62, "EP_AGE65": 21.32, "EP_DISABL": 20.58, "RPL_THEMES": 0.1019, "SPL_THEMES": 10.3, "source": "SIMULATED_FALLBACK", "is_simulated": 1}}, {"type": "Feature", "geometry": {"type": "Polygon", "coordinates": [[[-118.51666666666667, 33.374], [-118.42458333333333, 33.374], [-118.42458333333333, 33.5508], [-118.51666666666667, 33.5508], [-118.51666666666667, 33.374]]]}, "properties": {"GEOID": "SIM06037000040", "FIPS": "06037000040", "LOCATION": "Simulated LA County tract 040", "E_TOTPOP": 7118, "EP_POV150": 25.8, "EP_UNEMP": 12.88, "EP_AGE65": 27.34, "EP_DISABL": 16.7, "RPL_THEMES": 0.2922, "SPL_THEMES": 4.015, "source": "SIMULATED_FALLBACK", "is_simulated": 1}}, {"type": "Feature", "geometry": {"type": "Polygon", "coordinates": [[[-118.40833333333333, 33.374], [-118.31625, 33.374], [-118.31625, 33.5508], [-118.40833333333333, 33.5508], [-118.40833333333333, 33.374]]]}, "properties": {"GEOID": "SIM06037000041", "FIPS": "06037000041", "LOCATION": "Simulated LA County tract 041", "E_TOTPOP": 7839, "EP_POV150": 30.22, "EP_UNEMP": 12.12, "EP_AGE65": 14.73, "EP_DISABL": 20.09, "RPL_THEMES": 0.4219, "SPL_THEMES": 1.519, "source": "SIMULATED_FALLBACK", "is_simulated": 1}}, {"type": "Feature", "geometry": {"type": "Polygon", "coordinates": [[[-118.30000000000001, 33.374], [-118.20791666666668, 33.374], [-118.20791666666668, 33.5508], [-118.30000000000001, 33.5508], [-118.30000000000001, 33.374]]]}, "properties": {"GEOID": "SIM06037000042", "FIPS": "06037000042", "LOCATION": "Simulated LA County tract 042", "E_TOTPOP": 1373, "EP_POV150": 14.52, "EP_UNEMP": 9.83, "EP_AGE65": 18.36, "EP_DISABL": 10.97, "RPL_THEMES": 0.6529, "SPL_THEMES": 11.924, "source": "SIMULATED_FALLBACK", "is_simulated": 1}}, {"type": "Feature", "geometry": {"type": "Polygon", "coordinates": [[[-118.19166666666668, 33.374], [-118.09958333333334, 33.374], [-118.09958333333334, 33.5508], [-118.19166666666668, 33.5508], [-118.19166666666668, 33.374]]]}, "properties": {"GEOID": "SIM06037000043", "FIPS": "06037000043", "LOCATION": "Simulated LA County tract 043", "E_TOTPOP": 1456, "EP_POV150": 13.38, "EP_UNEMP": 7.15, "EP_AGE65": 17.04, "EP_DISABL": 8.69, "RPL_THEMES": 0.8334, "SPL_THEMES": 8.723, "source": "SIMULATED_FALLBACK", "is_simulated": 1}}, {"type": "Feature", "geometry": {"type": "Polygon", "coordinates": [[[-118.08333333333334, 33.374], [-117.99125000000001, 33.374], [-117.99125000000001, 33.5508], [-118.08333333333334, 33.5508], [-118.08333333333334, 33.374]]]}, "properties": {"GEOID": "SIM06037000044", "FIPS": "06037000044", "LOCATION": "Simulated LA County tract 044", "E_TOTPOP": 4768, "EP_POV150": 34.06, "EP_UNEMP": 4.27, "EP_AGE65": 26.29, "EP_DISABL": 19.01, "RPL_THEMES": 0.0102, "SPL_THEMES": 11.613, "source": "SIMULATED_FALLBACK", "is_simulated": 1}}, {"type": "Feature", "geometry": {"type": "Polygon", "coordinates": [[[-117.97500000000001, 33.374], [-117.88291666666667, 33.374], [-117.88291666666667, 33.5508], [-117.97500000000001, 33.5508], [-117.97500000000001, 33.374]]]}, "properties": {"GEOID": "SIM06037000045", "FIPS": "06037000045", "LOCATION": "Simulated LA County tract 045", "E_TOTPOP": 1369, "EP_POV150": 19.95, "EP_UNEMP": 14.93, "EP_AGE65": 17.1, "EP_DISABL": 4.11, "RPL_THEMES": 0.5275, "SPL_THEMES": 5.677, "source": "SIMULATED_FALLBACK", "is_simulated": 1}}, {"type": "Feature", "geometry": {"type": "Polygon", "coordinates": [[[-117.86666666666667, 33.374], [-117.77458333333334, 33.374], [-117.77458333333334, 33.5508], [-117.86666666666667, 33.5508], [-117.86666666666667, 33.374]]]}, "properties": {"GEOID": "SIM06037000046", "FIPS": "06037000046", "LOCATION": "Simulated LA County tract 046", "E_TOTPOP": 5072, "EP_POV150": 6.06, "EP_UNEMP": 3.32, "EP_AGE65": 23.49, "EP_DISABL": 5.38, "RPL_THEMES": 0.5708, "SPL_THEMES": 11.857, "source": "SIMULATED_FALLBACK", "is_simulated": 1}}, {"type": "Feature", "geometry": {"type": "Polygon", "coordinates": [[[-117.75833333333334, 33.374], [-117.66625, 33.374], [-117.66625, 33.5508], [-117.75833333333334, 33.5508], [-117.75833333333334, 33.374]]]}, "properties": {"GEOID": "SIM06037000047", "FIPS": "06037000047", "LOCATION": "Simulated LA County tract 047", "E_TOTPOP": 6398, "EP_POV150": 12.46, "EP_UNEMP": 16.16, "EP_AGE65": 13.17, "EP_DISABL": 4.31, "RPL_THEMES": 0.0275, "SPL_THEMES": 1.456, "source": "SIMULATED_FALLBACK", "is_simulated": 1}}, {"type": "Feature", "geometry": {"type": "Polygon", "coordinates": [[[-118.95, 33.582], [-118.85791666666667, 33.582], [-118.85791666666667, 33.7588], [-118.95, 33.7588], [-118.95, 33.582]]]}, "properties": {"GEOID": "SIM06037000048", "FIPS": "06037000048", "LOCATION": "Simulated LA County tract 048", "E_TOTPOP": 5118, "EP_POV150": 6.4, "EP_UNEMP": 5.76, "EP_AGE65": 23.82, "EP_DISABL": 11.08, "RPL_THEMES": 0.3236, "SPL_THEMES": 6.908, "source": "SIMULATED_FALLBACK", "is_simulated": 1}}, {"type": "Feature", "geometry": {"type": "Polygon", "coordinates": [[[-118.84166666666667, 33.582], [-118.74958333333333, 33.582], [-118.74958333333333, 33.7588], [-118.84166666666667, 33.7588], [-118.84166666666667, 33.582]]]}, "properties": {"GEOID": "SIM06037000049", "FIPS": "06037000049", "LOCATION": "Simulated LA County tract 049", "E_TOTPOP": 3083, "EP_POV150": 25.44, "EP_UNEMP": 14.24, "EP_AGE65": 13.24, "EP_DISABL": 21.97, "RPL_THEMES": 0.1822, "SPL_THEMES": 3.179, "source": "SIMULATED_FALLBACK", "is_simulated": 1}}, {"type": "Feature", "geometry": {"type": "Polygon", "coordinates": [[[-118.73333333333333, 33.582], [-118.64125, 33.582], [-118.64125, 33.7588], [-118.73333333333333, 33.7588], [-118.73333333333333, 33.582]]]}, "properties": {"GEOID": "SIM06037000050", "FIPS": "06037000050", "LOCATION": "Simulated LA County tract 050", "E_TOTPOP": 7300, "EP_POV150": 20.32, "EP_UNEMP": 13.21, "EP_AGE65": 5.2, "EP_DISABL": 9.49, "RPL_THEMES": 0.0261, "SPL_THEMES": 4.784, "source": "SIMULATED_FALLBACK", "is_simulated": 1}}, {"type": "Feature", "geometry": {"type": "Polygon", "coordinates": [[[-118.625, 33.582], [-118.53291666666667, 33.582], [-118.53291666666667, 33.7588], [-118.625, 33.7588], [-118.625, 33.582]]]}, "properties": {"GEOID": "SIM06037000051", "FIPS": "06037000051", "LOCATION": "Simulated LA County tract 051", "E_TOTPOP": 2874, "EP_POV150": 29.26, "EP_UNEMP": 5.3, "EP_AGE65": 12.8, "EP_DISABL": 13.56, "RPL_THEMES": 0.9298, "SPL_THEMES": 6.976, "source": "SIMULATED_FALLBACK", "is_simulated": 1}}, {"type": "Feature", "geometry": {"type": "Polygon", "coordinates": [[[-118.51666666666667, 33.582], [-118.42458333333333, 33.582], [-118.42458333333333, 33.7588], [-118.51666666666667, 33.7588], [-118.51666666666667, 33.582]]]}, "properties": {"GEOID": "SIM06037000052", "FIPS": "06037000052", "LOCATION": "Simulated LA County tract 052", "E_TOTPOP": 4767, "EP_POV150": 14.56, "EP_UNEMP": 3.83, "EP_AGE65": 25.15, "EP_DISABL": 18.58, "RPL_THEMES": 0.1455, "SPL_THEMES": 7.292, "source": "SIMULATED_FALLBACK", "is_simulated": 1}}, {"type": "Feature", "geometry": {"type": "Polygon", "coordinates": [[[-118.40833333333333, 33.582], [-118.31625, 33.582], [-118.31625, 33.7588], [-118.40833333333333, 33.7588], [-118.40833333333333, 33.582]]]}, "properties": {"GEOID": "SIM06037000053", "FIPS": "06037000053", "LOCATION": "Simulated LA County tract 053", "E_TOTPOP": 4005, "EP_POV150": 10.47, "EP_UNEMP": 11.63, "EP_AGE65": 16.14, "EP_DISABL": 16.21, "RPL_THEMES": 0.871, "SPL_THEMES": 1.177, "source": "SIMULATED_FALLBACK", "is_simulated": 1}}, {"type": "Feature", "geometry": {"type": "Polygon", "coordinates": [[[-118.30000000000001, 33.582], [-118.20791666666668, 33.582], [-118.20791666666668, 33.7588], [-118.30000000000001, 33.7588], [-118.30000000000001, 33.582]]]}, "properties": {"GEOID": "SIM06037000054", "FIPS": "06037000054", "LOCATION": "Simulated LA County tract 054", "E_TOTPOP": 7207, "EP_POV150": 29.14, "EP_UNEMP": 9.01, "EP_AGE65": 13.67, "EP_DISABL": 5.78, "RPL_THEMES": 0.8381, "SPL_THEMES": 10.616, "source": "SIMULATED_FALLBACK", "is_simulated": 1}}, {"type": "Feature", "geometry": {"type": "Polygon", "coordinates": [[[-118.19166666666668, 33.582], [-118.09958333333334, 33.582], [-118.09958333333334, 33.7588], [-118.19166666666668, 33.7588], [-118.19166666666668, 33.582]]]}, "properties": {"GEOID": "SIM06037000055", "FIPS": "06037000055", "LOCATION": "Simulated LA County tract 055", "E_TOTPOP": 3656, "EP_POV150": 19.77, "EP_UNEMP": 5.1, "EP_AGE65": 12.89, "EP_DISABL": 20.79, "RPL_THEMES": 0.5124, "SPL_THEMES": 1.64, "source": "SIMULATED_FALLBACK", "is_simulated": 1}}, {"type": "Feature", "geometry": {"type": "Polygon", "coordinates": [[[-118.08333333333334, 33.582], [-117.99125000000001, 33.582], [-117.99125000000001, 33.7588], [-118.08333333333334, 33.7588], [-118.08333333333334, 33.582]]]}, "properties": {"GEOID": "SIM06037000056", "FIPS": "06037000056", "LOCATION": "Simulated LA County tract 056", "E_TOTPOP": 6468, "EP_POV150": 14.29, "EP_UNEMP": 17.26, "EP_AGE65": 24.02, "EP_DISABL": 12.53, "RPL_THEMES": 0.0815, "SPL_THEMES": 3.509, "source": "SIMULATED_FALLBACK", "is_simulated": 1}}, {"type": "Feature", "geometry": {"type": "Polygon", "coordinates": [[[-117.97500000000001, 33.582], [-117.88291666666667, 33.582], [-117.88291666666667, 33.7588], [-117.97500000000001, 33.7588], [-117.97500000000001, 33.582]]]}, "properties": {"GEOID": "SIM06037000057", "FIPS": "06037000057", "LOCATION": "Simulated LA County tract 057", "E_TOTPOP": 2251, "EP_POV150": 31.0, "EP_UNEMP": 7.94, "EP_AGE65": 7.76, "EP_DISABL": 18.82, "RPL_THEMES": 0.8576, "SPL_THEMES": 11.714, "source": "SIMULATED_FALLBACK", "is_simulated": 1}}, {"type": "Feature", "geometry": {"type": "Polygon", "coordinates": [[[-117.86666666666667, 33.582], [-117.77458333333334, 33.582], [-117.77458333333334, 33.7588], [-117.86666666666667, 33.7588], [-117.86666666666667, 33.582]]]}, "properties": {"GEOID": "SIM06037000058", "FIPS": "06037000058", "LOCATION": "Simulated LA County tract 058", "E_TOTPOP": 6362, "EP_POV150": 26.91, "EP_UNEMP": 7.76, "EP_AGE65": 10.61, "EP_DISABL": 6.18, "RPL_THEMES": 0.2814, "SPL_THEMES": 5.812, "source": "SIMULATED_FALLBACK", "is_simulated": 1}}, {"type": "Feature", "geometry": {"type": "Polygon", "coordinates": [[[-117.75833333333334, 33.582], [-117.66625, 33.582], [-117.66625, 33.7588], [-117.75833333333334, 33.7588], [-117.75833333333334, 33.582]]]}, "properties": {"GEOID": "SIM06037000059", "FIPS": "06037000059", "LOCATION": "Simulated LA County tract 059", "E_TOTPOP": 2664, "EP_POV150": 26.93, "EP_UNEMP": 9.19, "EP_AGE65": 9.58, "EP_DISABL": 15.31, "RPL_THEMES": 0.9908, "SPL_THEMES": 3.502, "source": "SIMULATED_FALLBACK", "is_simulated": 1}}, {"type": "Feature", "geometry": {"type": "Polygon", "coordinates": [[[-118.95, 33.79], [-118.85791666666667, 33.79], [-118.85791666666667, 33.9668], [-118.95, 33.9668], [-118.95, 33.79]]]}, "properties": {"GEOID": "SIM06037000060", "FIPS": "06037000060", "LOCATION": "Simulated LA County tract 060", "E_TOTPOP": 7440, "EP_POV150": 16.07, "EP_UNEMP": 6.34, "EP_AGE65": 21.77, "EP_DISABL": 7.83, "RPL_THEMES": 0.261, "SPL_THEMES": 4.4, "source": "SIMULATED_FALLBACK", "is_simulated": 1}}, {"type": "Feature", "geometry": {"type": "Polygon", "coordinates": [[[-118.84166666666667, 33.79], [-118.74958333333333, 33.79], [-118.74958333333333, 33.9668], [-118.84166666666667, 33.9668], [-118.84166666666667, 33.79]]]}, "properties": {"GEOID": "SIM06037000061", "FIPS": "06037000061", "LOCATION": "Simulated LA County tract 061", "E_TOTPOP": 1011, "EP_POV150": 31.23, "EP_UNEMP": 11.44, "EP_AGE65": 6.23, "EP_DISABL": 16.74, "RPL_THEMES": 0.9954, "SPL_THEMES": 8.269, "source": "SIMULATED_FALLBACK", "is_simulated": 1}}, {"type": "Feature", "geometry": {"type": "Polygon", "coordinates": [[[-118.73333333333333, 33.79], [-118.64125, 33.79], [-118.64125, 33.9668], [-118.73333333333333, 33.9668], [-118.73333333333333, 33.79]]]}, "properties": {"GEOID": "SIM06037000062", "FIPS": "06037000062", "LOCATION": "Simulated LA County tract 062", "E_TOTPOP": 7489, "EP_POV150": 27.79, "EP_UNEMP": 12.38, "EP_AGE65": 17.19, "EP_DISABL": 21.43, "RPL_THEMES": 0.2848, "SPL_THEMES": 8.345, "source": "SIMULATED_FALLBACK", "is_simulated": 1}}, {"type": "Feature", "geometry": {"type": "Polygon", "coordinates": [[[-118.625, 33.79], [-118.53291666666667, 33.79], [-118.53291666666667, 33.9668], [-118.625, 33.9668], [-118.625, 33.79]]]}, "properties": {"GEOID": "SIM06037000063", "FIPS": "06037000063", "LOCATION": "Simulated LA County tract 063", "E_TOTPOP": 7621, "EP_POV150": 17.0, "EP_UNEMP": 2.12, "EP_AGE65": 26.49, "EP_DISABL": 20.66, "RPL_THEMES": 0.5714, "SPL_THEMES": 9.957, "source": "SIMULATED_FALLBACK", "is_simulated": 1}}, {"type": "Feature", "geometry": {"type": "Polygon", "coordinates": [[[-118.51666666666667, 33.79], [-118.42458333333333, 33.79], [-118.42458333333333, 33.9668], [-118.51666666666667, 33.9668], [-118.51666666666667, 33.79]]]}, "properties": {"GEOID": "SIM06037000064", "FIPS": "06037000064", "LOCATION": "Simulated LA County tract 064", "E_TOTPOP": 5289, "EP_POV150": 18.08, "EP_UNEMP": 17.96, "EP_AGE65": 9.88, "EP_DISABL": 17.21, "RPL_THEMES": 0.9988, "SPL_THEMES": 1.11, "source": "SIMULATED_FALLBACK", "is_simulated": 1}}, {"type": "Feature", "geometry": {"type": "Polygon", "coordinates": [[[-118.40833333333333, 33.79], [-118.31625, 33.79], [-118.31625, 33.9668], [-118.40833333333333, 33.9668], [-118.40833333333333, 33.79]]]}, "properties": {"GEOID": "SIM06037000065", "FIPS": "06037000065", "LOCATION": "Simulated LA County tract 065", "E_TOTPOP": 2126, "EP_POV150": 22.54, "EP_UNEMP": 11.38, "EP_AGE65": 23.05, "EP_DISABL": 14.28, "RPL_THEMES": 0.6174, "SPL_THEMES": 0.899, "source": "SIMULATED_FALLBACK", "is_simulated": 1}}, {"type": "Feature", "geometry": {"type": "Polygon", "coordinates": [[[-118.30000000000001, 33.79], [-118.20791666666668, 33.79], [-118.20791666666668, 33.9668], [-118.30000000000001, 33.9668], [-118.30000000000001, 33.79]]]}, "properties": {"GEOID": "SIM06037000066", "FIPS": "06037000066", "LOCATION": "Simulated LA County tract 066", "E_TOTPOP": 2862, "EP_POV150": 34.46, "EP_UNEMP": 9.57, "EP_AGE65": 6.76, "EP_DISABL": 15.43, "RPL_THEMES": 0.8657, "SPL_THEMES": 7.442, "source": "SIMULATED_FALLBACK", "is_simulated": 1}}, {"type": "Feature", "geometry": {"type": "Polygon", "coordinates": [[[-118.19166666666668, 33.79], [-118.09958333333334, 33.79], [-118.09958333333334, 33.9668], [-118.19166666666668, 33.9668], [-118.19166666666668, 33.79]]]}, "properties": {"GEOID": "SIM06037000067", "FIPS": "06037000067", "LOCATION": "Simulated LA County tract 067", "E_TOTPOP": 6913, "EP_POV150": 31.7, "EP_UNEMP": 15.04, "EP_AGE65": 15.57, "EP_DISABL": 5.0, "RPL_THEMES": 0.6507, "SPL_THEMES": 3.92, "source": "SIMULATED_FALLBACK", "is_simulated": 1}}, {"type": "Feature", "geometry": {"type": "Polygon", "coordinates": [[[-118.08333333333334, 33.79], [-117.99125000000001, 33.79], [-117.99125000000001, 33.9668], [-118.08333333333334, 33.9668], [-118.08333333333334, 33.79]]]}, "properties": {"GEOID": "SIM06037000068", "FIPS": "06037000068", "LOCATION": "Simulated LA County tract 068", "E_TOTPOP": 5967, "EP_POV150": 11.42, "EP_UNEMP": 2.93, "EP_AGE65": 11.55, "EP_DISABL": 18.61, "RPL_THEMES": 0.0235, "SPL_THEMES": 11.537, "source": "SIMULATED_FALLBACK", "is_simulated": 1}}, {"type": "Feature", "geometry": {"type": "Polygon", "coordinates": [[[-117.97500000000001, 33.79], [-117.88291666666667, 33.79], [-117.88291666666667, 33.9668], [-117.97500000000001, 33.9668], [-117.97500000000001, 33.79]]]}, "properties": {"GEOID": "SIM06037000069", "FIPS": "06037000069", "LOCATION": "Simulated LA County tract 069", "E_TOTPOP": 3542, "EP_POV150": 23.53, "EP_UNEMP": 4.95, "EP_AGE65": 27.47, "EP_DISABL": 19.05, "RPL_THEMES": 0.8799, "SPL_THEMES": 4.509, "source": "SIMULATED_FALLBACK", "is_simulated": 1}}, {"type": "Feature", "geometry": {"type": "Polygon", "coordinates": [[[-117.86666666666667, 33.79], [-117.77458333333334, 33.79], [-117.77458333333334, 33.9668], [-117.86666666666667, 33.9668], [-117.86666666666667, 33.79]]]}, "properties": {"GEOID": "SIM06037000070", "FIPS": "06037000070", "LOCATION": "Simulated LA County tract 070", "E_TOTPOP": 3571, "EP_POV150": 15.71, "EP_UNEMP": 12.77, "EP_AGE65": 22.86, "EP_DISABL": 14.97, "RPL_THEMES": 0.4795, "SPL_THEMES": 11.182, "source": "SIMULATED_FALLBACK", "is_simulated": 1}}, {"type": "Feature", "geometry": {"type": "Polygon", "coordinates": [[[-117.75833333333334, 33.79], [-117.66625, 33.79], [-117.66625, 33.9668], [-117.75833333333334, 33.9668], [-117.75833333333334, 33.79]]]}, "properties": {"GEOID": "SIM06037000071", "FIPS": "06037000071", "LOCATION": "Simulated LA County tract 071", "E_TOTPOP": 4869, "EP_POV150": 19.71, "EP_UNEMP": 7.07, "EP_AGE65": 7.39, "EP_DISABL": 10.18, "RPL_THEMES": 0.3765, "SPL_THEMES": 7.791, "source": "SIMULATED_FALLBACK", "is_simulated": 1}}, {"type": "Feature", "geometry": {"type": "Polygon", "coordinates": [[[-118.95, 33.998], [-118.85791666666667, 33.998], [-118.85791666666667, 34.1748], [-118.95, 34.1748], [-118.95, 33.998]]]}, "properties": {"GEOID": "SIM06037000072", "FIPS": "06037000072", "LOCATION": "Simulated LA County tract 072", "E_TOTPOP": 2344, "EP_POV150": 11.11, "EP_UNEMP": 5.88, "EP_AGE65": 15.97, "EP_DISABL": 18.77, "RPL_THEMES": 0.2549, "SPL_THEMES": 4.278, "source": "SIMULATED_FALLBACK", "is_simulated": 1}}, {"type": "Feature", "geometry": {"type": "Polygon", "coordinates": [[[-118.84166666666667, 33.998], [-118.74958333333333, 33.998], [-118.74958333333333, 34.1748], [-118.84166666666667, 34.1748], [-118.84166666666667, 33.998]]]}, "properties": {"GEOID": "SIM06037000073", "FIPS": "06037000073", "LOCATION": "Simulated LA County tract 073", "E_TOTPOP": 1921, "EP_POV150": 19.61, "EP_UNEMP": 9.09, "EP_AGE65": 25.62, "EP_DISABL": 5.04, "RPL_THEMES": 0.9738, "SPL_THEMES": 4.987, "source": "SIMULATED_FALLBACK", "is_simulated": 1}}, {"type": "Feature", "geometry": {"type": "Polygon", "coordinates": [[[-118.73333333333333, 33.998], [-118.64125, 33.998], [-118.64125, 34.1748], [-118.73333333333333, 34.1748], [-118.73333333333333, 33.998]]]}, "properties": {"GEOID": "SIM06037000074", "FIPS": "06037000074", "LOCATION": "Simulated LA County tract 074", "E_TOTPOP": 3386, "EP_POV150": 26.17, "EP_UNEMP": 16.69, "EP_AGE65": 7.76, "EP_DISABL": 6.76, "RPL_THEMES": 0.2759, "SPL_THEMES": 2.541, "source": "SIMULATED_FALLBACK", "is_simulated": 1}}, {"type": "Feature", "geometry": {"type": "Polygon", "coordinates": [[[-118.625, 33.998], [-118.53291666666667, 33.998], [-118.53291666666667, 34.1748], [-118.625, 34.1748], [-118.625, 33.998]]]}, "properties": {"GEOID": "SIM06037000075", "FIPS": "06037000075", "LOCATION": "Simulated LA County tract 075", "E_TOTPOP": 5420, "EP_POV150": 11.45, "EP_UNEMP": 15.47, "EP_AGE65": 20.81, "EP_DISABL": 6.23, "RPL_THEMES": 0.4188, "SPL_THEMES": 5.099, "source": "SIMULATED_FALLBACK", "is_simulated": 1}}, {"type": "Feature", "geometry": {"type": "Polygon", "coordinates": [[[-118.51666666666667, 33.998], [-118.42458333333333, 33.998], [-118.42458333333333, 34.1748], [-118.51666666666667, 34.1748], [-118.51666666666667, 33.998]]]}, "properties": {"GEOID": "SIM06037000076", "FIPS": "06037000076", "LOCATION": "Simulated LA County tract 076", "E_TOTPOP": 5811, "EP_POV150": 14.61, "EP_UNEMP": 8.14, "EP_AGE65": 9.59, "EP_DISABL": 20.86, "RPL_THEMES": 0.5468, "SPL_THEMES": 9.213, "source": "SIMULATED_FALLBACK", "is_simulated": 1}}, {"type": "Feature", "geometry": {"type": "Polygon", "coordinates": [[[-118.40833333333333, 33.998], [-118.31625, 33.998], [-118.31625, 34.1748], [-118.40833333333333, 34.1748], [-118.40833333333333, 33.998]]]}, "properties": {"GEOID": "SIM06037000077", "FIPS": "06037000077", "LOCATION": "Simulated LA County tract 077", "E_TOTPOP": 2937, "EP_POV150": 27.06, "EP_UNEMP": 12.56, "EP_AGE65": 16.61, "EP_DISABL": 15.07, "RPL_THEMES": 0.5628, "SPL_THEMES": 1.611, "source": "SIMULATED_FALLBACK", "is_simulated": 1}}, {"type": "Feature", "geometry": {"type": "Polygon", "coordinates": [[[-118.30000000000001, 33.998], [-118.20791666666668, 33.998], [-118.20791666666668, 34.1748], [-118.30000000000001, 34.1748], [-118.30000000000001, 33.998]]]}, "properties": {"GEOID": "SIM06037000078", "FIPS": "06037000078", "LOCATION": "Simulated LA County tract 078", "E_TOTPOP": 6938, "EP_POV150": 33.51, "EP_UNEMP": 2.56, "EP_AGE65": 9.57, "EP_DISABL": 12.41, "RPL_THEMES": 0.9389, "SPL_THEMES": 0.608, "source": "SIMULATED_FALLBACK", "is_simulated": 1}}, {"type": "Feature", "geometry": {"type": "Polygon", "coordinates": [[[-118.19166666666668, 33.998], [-118.09958333333334, 33.998], [-118.09958333333334, 34.1748], [-118.19166666666668, 34.1748], [-118.19166666666668, 33.998]]]}, "properties": {"GEOID": "SIM06037000079", "FIPS": "06037000079", "LOCATION": "Simulated LA County tract 079", "E_TOTPOP": 7881, "EP_POV150": 30.33, "EP_UNEMP": 2.78, "EP_AGE65": 15.59, "EP_DISABL": 17.84, "RPL_THEMES": 0.4606, "SPL_THEMES": 5.637, "source": "SIMULATED_FALLBACK", "is_simulated": 1}}, {"type": "Feature", "geometry": {"type": "Polygon", "coordinates": [[[-118.08333333333334, 33.998], [-117.99125000000001, 33.998], [-117.99125000000001, 34.1748], [-118.08333333333334, 34.1748], [-118.08333333333334, 33.998]]]}, "properties": {"GEOID": "SIM06037000080", "FIPS": "06037000080", "LOCATION": "Simulated LA County tract 080", "E_TOTPOP": 7893, "EP_POV150": 3.5, "EP_UNEMP": 15.9, "EP_AGE65": 12.93, "EP_DISABL": 6.07, "RPL_THEMES": 0.8412, "SPL_THEMES": 4.488, "source": "SIMULATED_FALLBACK", "is_simulated": 1}}, {"type": "Feature", "geometry": {"type": "Polygon", "coordinates": [[[-117.97500000000001, 33.998], [-117.88291666666667, 33.998], [-117.88291666666667, 34.1748], [-117.97500000000001, 34.1748], [-117.97500000000001, 33.998]]]}, "properties": {"GEOID": "SIM06037000081", "FIPS": "06037000081", "LOCATION": "Simulated LA County tract 081", "E_TOTPOP": 3112, "EP_POV150": 11.97, "EP_UNEMP": 13.77, "EP_AGE65": 19.19, "EP_DISABL": 9.97, "RPL_THEMES": 0.5824, "SPL_THEMES": 6.615, "source": "SIMULATED_FALLBACK", "is_simulated": 1}}, {"type": "Feature", "geometry": {"type": "Polygon", "coordinates": [[[-117.86666666666667, 33.998], [-117.77458333333334, 33.998], [-117.77458333333334, 34.1748], [-117.86666666666667, 34.1748], [-117.86666666666667, 33.998]]]}, "properties": {"GEOID": "SIM06037000082", "FIPS": "06037000082", "LOCATION": "Simulated LA County tract 082", "E_TOTPOP": 7253, "EP_POV150": 16.22, "EP_UNEMP": 14.21, "EP_AGE65": 24.68, "EP_DISABL": 10.82, "RPL_THEMES": 0.9455, "SPL_THEMES": 6.762, "source": "SIMULATED_FALLBACK", "is_simulated": 1}}, {"type": "Feature", "geometry": {"type": "Polygon", "coordinates": [[[-117.75833333333334, 33.998], [-117.66625, 33.998], [-117.66625, 34.1748], [-117.75833333333334, 34.1748], [-117.75833333333334, 33.998]]]}, "properties": {"GEOID": "SIM06037000083", "FIPS": "06037000083", "LOCATION": "Simulated LA County tract 083", "E_TOTPOP": 4903, "EP_POV150": 34.97, "EP_UNEMP": 10.21, "EP_AGE65": 16.1, "EP_DISABL": 6.72, "RPL_THEMES": 0.6981, "SPL_THEMES": 0.744, "source": "SIMULATED_FALLBACK", "is_simulated": 1}}, {"type": "Feature", "geometry": {"type": "Polygon", "coordinates": [[[-118.95, 34.205999999999996], [-118.85791666666667, 34.205999999999996], [-118.85791666666667, 34.382799999999996], [-118.95, 34.382799999999996], [-118.95, 34.205999999999996]]]}, "properties": {"GEOID": "SIM06037000084", "FIPS": "06037000084", "LOCATION": "Simulated LA County tract 084", "E_TOTPOP": 4833, "EP_POV150": 10.09, "EP_UNEMP": 9.98, "EP_AGE65": 6.55, "EP_DISABL": 5.24, "RPL_THEMES": 0.1662, "SPL_THEMES": 4.512, "source": "SIMULATED_FALLBACK", "is_simulated": 1}}, {"type": "Feature", "geometry": {"type": "Polygon", "coordinates": [[[-118.84166666666667, 34.205999999999996], [-118.74958333333333, 34.205999999999996], [-118.74958333333333, 34.382799999999996], [-118.84166666666667, 34.382799999999996], [-118.84166666666667, 34.205999999999996]]]}, "properties": {"GEOID": "SIM06037000085", "FIPS": "06037000085", "LOCATION": "Simulated LA County tract 085", "E_TOTPOP": 1705, "EP_POV150": 31.51, "EP_UNEMP": 2.96, "EP_AGE65": 15.23, "EP_DISABL": 7.99, "RPL_THEMES": 0.6366, "SPL_THEMES": 6.117, "source": "SIMULATED_FALLBACK", "is_simulated": 1}}, {"type": "Feature", "geometry": {"type": "Polygon", "coordinates": [[[-118.73333333333333, 34.205999999999996], [-118.64125, 34.205999999999996], [-118.64125, 34.382799999999996], [-118.73333333333333, 34.382799999999996], [-118.73333333333333, 34.205999999999996]]]}, "properties": {"GEOID": "SIM06037000086", "FIPS": "06037000086", "LOCATION": "Simulated LA County tract 086", "E_TOTPOP": 5585, "EP_POV150": 33.3, "EP_UNEMP": 5.14, "EP_AGE65": 23.56, "EP_DISABL": 15.79, "RPL_THEMES": 0.8528, "SPL_THEMES": 9.047, "source": "SIMULATED_FALLBACK", "is_simulated": 1}}, {"type": "Feature", "geometry": {"type": "Polygon", "coordinates": [[[-118.625, 34.205999999999996], [-118.53291666666667, 34.205999999999996], [-118.53291666666667, 34.382799999999996], [-118.625, 34.382799999999996], [-118.625, 34.205999999999996]]]}, "properties": {"GEOID": "SIM06037000087", "FIPS": "06037000087", "LOCATION": "Simulated LA County tract 087", "E_TOTPOP": 5869, "EP_POV150": 17.62, "EP_UNEMP": 5.37, "EP_AGE65": 8.95, "EP_DISABL": 19.89, "RPL_THEMES": 0.0602, "SPL_THEMES": 6.271, "source": "SIMULATED_FALLBACK", "is_simulated": 1}}, {"type": "Feature", "geometry": {"type": "Polygon", "coordinates": [[[-118.51666666666667, 34.205999999999996], [-118.42458333333333, 34.205999999999996], [-118.42458333333333, 34.382799999999996], [-118.51666666666667, 34.382799999999996], [-118.51666666666667, 34.205999999999996]]]}, "properties": {"GEOID": "SIM06037000088", "FIPS": "06037000088", "LOCATION": "Simulated LA County tract 088", "E_TOTPOP": 6162, "EP_POV150": 33.87, "EP_UNEMP": 9.09, "EP_AGE65": 11.02, "EP_DISABL": 15.63, "RPL_THEMES": 0.9811, "SPL_THEMES": 9.155, "source": "SIMULATED_FALLBACK", "is_simulated": 1}}, {"type": "Feature", "geometry": {"type": "Polygon", "coordinates": [[[-118.40833333333333, 34.205999999999996], [-118.31625, 34.205999999999996], [-118.31625, 34.382799999999996], [-118.40833333333333, 34.382799999999996], [-118.40833333333333, 34.205999999999996]]]}, "properties": {"GEOID": "SIM06037000089", "FIPS": "06037000089", "LOCATION": "Simulated LA County tract 089", "E_TOTPOP": 3274, "EP_POV150": 12.12, "EP_UNEMP": 16.15, "EP_AGE65": 22.31, "EP_DISABL": 14.43, "RPL_THEMES": 0.6945, "SPL_THEMES": 11.939, "source": "SIMULATED_FALLBACK", "is_simulated": 1}}, {"type": "Feature", "geometry": {"type": "Polygon", "coordinates": [[[-118.30000000000001, 34.205999999999996], [-118.20791666666668, 34.205999999999996], [-118.20791666666668, 34.382799999999996], [-118.30000000000001, 34.382799999999996], [-118.30000000000001, 34.205999999999996]]]}, "properties": {"GEOID": "SIM06037000090", "FIPS": "06037000090", "LOCATION": "Simulated LA County tract 090", "E_TOTPOP": 2603, "EP_POV150": 13.45, "EP_UNEMP": 9.38, "EP_AGE65": 11.67, "EP_DISABL": 11.8, "RPL_THEMES": 0.8278, "SPL_THEMES": 0.452, "source": "SIMULATED_FALLBACK", "is_simulated": 1}}, {"type": "Feature", "geometry": {"type": "Polygon", "coordinates": [[[-118.19166666666668, 34.205999999999996], [-118.09958333333334, 34.205999999999996], [-118.09958333333334, 34.382799999999996], [-118.19166666666668, 34.382799999999996], [-118.19166666666668, 34.205999999999996]]]}, "properties": {"GEOID": "SIM06037000091", "FIPS": "06037000091", "LOCATION": "Simulated LA County tract 091", "E_TOTPOP": 3491, "EP_POV150": 17.19, "EP_UNEMP": 4.05, "EP_AGE65": 27.32, "EP_DISABL": 7.66, "RPL_THEMES": 0.967, "SPL_THEMES": 10.942, "source": "SIMULATED_FALLBACK", "is_simulated": 1}}, {"type": "Feature", "geometry": {"type": "Polygon", "coordinates": [[[-118.08333333333334, 34.205999999999996], [-117.99125000000001, 34.205999999999996], [-117.99125000000001, 34.382799999999996], [-118.08333333333334, 34.382799999999996], [-118.08333333333334, 34.205999999999996]]]}, "properties": {"GEOID": "SIM06037000092", "FIPS": "06037000092", "LOCATION": "Simulated LA County tract 092", "E_TOTPOP": 4153, "EP_POV150": 34.99, "EP_UNEMP": 13.58, "EP_AGE65": 16.91, "EP_DISABL": 5.57, "RPL_THEMES": 0.9028, "SPL_THEMES": 1.862, "source": "SIMULATED_FALLBACK", "is_simulated": 1}}, {"type": "Feature", "geometry": {"type": "Polygon", "coordinates": [[[-117.97500000000001, 34.205999999999996], [-117.88291666666667, 34.205999999999996], [-117.88291666666667, 34.382799999999996], [-117.97500000000001, 34.382799999999996], [-117.97500000000001, 34.205999999999996]]]}, "properties": {"GEOID": "SIM06037000093", "FIPS": "06037000093", "LOCATION": "Simulated LA County tract 093", "E_TOTPOP": 1230, "EP_POV150": 8.73, "EP_UNEMP": 9.03, "EP_AGE65": 25.73, "EP_DISABL": 17.7, "RPL_THEMES": 0.4534, "SPL_THEMES": 3.352, "source": "SIMULATED_FALLBACK", "is_simulated": 1}}, {"type": "Feature", "geometry": {"type": "Polygon", "coordinates": [[[-117.86666666666667, 34.205999999999996], [-117.77458333333334, 34.205999999999996], [-117.77458333333334, 34.382799999999996], [-117.86666666666667, 34.382799999999996], [-117.86666666666667, 34.205999999999996]]]}, "properties": {"GEOID": "SIM06037000094", "FIPS": "06037000094", "LOCATION": "Simulated LA County tract 094", "E_TOTPOP": 6468, "EP_POV150": 9.63, "EP_UNEMP": 14.01, "EP_AGE65": 26.09, "EP_DISABL": 15.48, "RPL_THEMES": 0.5292, "SPL_THEMES": 3.469, "source": "SIMULATED_FALLBACK", "is_simulated": 1}}, {"type": "Feature", "geometry": {"type": "Polygon", "coordinates": [[[-117.75833333333334, 34.205999999999996], [-117.66625, 34.205999999999996], [-117.66625, 34.382799999999996], [-117.75833333333334, 34.382799999999996], [-117.75833333333334, 34.205999999999996]]]}, "properties": {"GEOID": "SIM06037000095", "FIPS": "06037000095", "LOCATION": "Simulated LA County tract 095", "E_TOTPOP": 4851, "EP_POV150": 7.83, "EP_UNEMP": 2.06, "EP_AGE65": 18.09, "EP_DISABL": 21.95, "RPL_THEMES": 0.9651, "SPL_THEMES": 9.654, "source": "SIMULATED_FALLBACK", "is_simulated": 1}}, {"type": "Feature", "geometry": {"type": "Polygon", "coordinates": [[[-118.95, 34.414], [-118.85791666666667, 34.414], [-118.85791666666667, 34.5908], [-118.95, 34.5908], [-118.95, 34.414]]]}, "properties": {"GEOID": "SIM06037000096", "FIPS": "06037000096", "LOCATION": "Simulated LA County tract 096", "E_TOTPOP": 870, "EP_POV150": 7.26, "EP_UNEMP": 7.12, "EP_AGE65": 7.74, "EP_DISABL": 6.45, "RPL_THEMES": 0.4951, "SPL_THEMES": 11.122, "source": "SIMULATED_FALLBACK", "is_simulated": 1}}, {"type": "Feature", "geometry": {"type": "Polygon", "coordinates": [[[-118.84166666666667, 34.414], [-118.74958333333333, 34.414], [-118.74958333333333, 34.5908], [-118.84166666666667, 34.5908], [-118.84166666666667, 34.414]]]}, "properties": {"GEOID": "SIM06037000097", "FIPS": "06037000097", "LOCATION": "Simulated LA County tract 097", "E_TOTPOP": 1863, "EP_POV150": 23.71, "EP_UNEMP": 10.05, "EP_AGE65": 5.8, "EP_DISABL": 18.79, "RPL_THEMES": 0.0553, "SPL_THEMES": 0.278, "source": "SIMULATED_FALLBACK", "is_simulated": 1}}, {"type": "Feature", "geometry": {"type": "Polygon", "coordinates": [[[-118.73333333333333, 34.414], [-118.64125, 34.414], [-118.64125, 34.5908], [-118.73333333333333, 34.5908], [-118.73333333333333, 34.414]]]}, "properties": {"GEOID": "SIM06037000098", "FIPS": "06037000098", "LOCATION": "Simulated LA County tract 098", "E_TOTPOP": 6571, "EP_POV150": 18.61, "EP_UNEMP": 12.49, "EP_AGE65": 15.92, "EP_DISABL": 14.44, "RPL_THEMES": 0.7923, "SPL_THEMES": 0.066, "source": "SIMULATED_FALLBACK", "is_simulated": 1}}, {"type": "Feature", "geometry": {"type": "Polygon", "coordinates": [[[-118.625, 34.414], [-118.53291666666667, 34.414], [-118.53291666666667, 34.5908], [-118.625, 34.5908], [-118.625, 34.414]]]}, "properties": {"GEOID": "SIM06037000099", "FIPS": "06037000099", "LOCATION": "Simulated LA County tract 099", "E_TOTPOP": 2076, "EP_POV150": 32.44, "EP_UNEMP": 12.21, "EP_AGE65": 26.86, "EP_DISABL": 13.55, "RPL_THEMES": 0.2545, "SPL_THEMES": 5.225, "source": "SIMULATED_FALLBACK", "is_simulated": 1}}, {"type": "Feature", "geometry": {"type": "Polygon", "coordinates": [[[-118.51666666666667, 34.414], [-118.42458333333333, 34.414], [-118.42458333333333, 34.5908], [-118.51666666666667, 34.5908], [-118.51666666666667, 34.414]]]}, "properties": {"GEOID": "SIM06037000100", "FIPS": "06037000100", "LOCATION": "Simulated LA County tract 100", "E_TOTPOP": 2274, "EP_POV150": 15.65, "EP_UNEMP": 12.63, "EP_AGE65": 7.65, "EP_DISABL": 14.0, "RPL_THEMES": 0.2582, "SPL_THEMES": 0.024, "source": "SIMULATED_FALLBACK", "is_simulated": 1}}, {"type": "Feature", "geometry": {"type": "Polygon", "coordinates": [[[-118.40833333333333, 34.414], [-118.31625, 34.414], [-118.31625, 34.5908], [-118.40833333333333, 34.5908], [-118.40833333333333, 34.414]]]}, "properties": {"GEOID": "SIM06037000101", "FIPS": "06037000101", "LOCATION": "Simulated LA County tract 101", "E_TOTPOP": 4336, "EP_POV150": 26.46, "EP_UNEMP": 11.01, "EP_AGE65": 14.35, "EP_DISABL": 13.03, "RPL_THEMES": 0.7892, "SPL_THEMES": 1.585, "source": "SIMULATED_FALLBACK", "is_simulated": 1}}, {"type": "Feature", "geometry": {"type": "Polygon", "coordinates": [[[-118.30000000000001, 34.414], [-118.20791666666668, 34.414], [-118.20791666666668, 34.5908], [-118.30000000000001, 34.5908], [-118.30000000000001, 34.414]]]}, "properties": {"GEOID": "SIM06037000102", "FIPS": "06037000102", "LOCATION": "Simulated LA County tract 102", "E_TOTPOP": 7497, "EP_POV150": 13.07, "EP_UNEMP": 8.01, "EP_AGE65": 22.32, "EP_DISABL": 15.89, "RPL_THEMES": 0.9819, "SPL_THEMES": 3.207, "source": "SIMULATED_FALLBACK", "is_simulated": 1}}, {"type": "Feature", "geometry": {"type": "Polygon", "coordinates": [[[-118.19166666666668, 34.414], [-118.09958333333334, 34.414], [-118.09958333333334, 34.5908], [-118.19166666666668, 34.5908], [-118.19166666666668, 34.414]]]}, "properties": {"GEOID": "SIM06037000103", "FIPS": "06037000103", "LOCATION": "Simulated LA County tract 103", "E_TOTPOP": 2406, "EP_POV150": 34.39, "EP_UNEMP": 15.38, "EP_AGE65": 5.86, "EP_DISABL": 16.32, "RPL_THEMES": 0.9379, "SPL_THEMES": 3.047, "source": "SIMULATED_FALLBACK", "is_simulated": 1}}, {"type": "Feature", "geometry": {"type": "Polygon", "coordinates": [[[-118.08333333333334, 34.414], [-117.99125000000001, 34.414], [-117.99125000000001, 34.5908], [-118.08333333333334, 34.5908], [-118.08333333333334, 34.414]]]}, "properties": {"GEOID": "SIM06037000104", "FIPS": "06037000104", "LOCATION": "Simulated LA County tract 104", "E_TOTPOP": 7704, "EP_POV150": 15.41, "EP_UNEMP": 6.51, "EP_AGE65": 19.17, "EP_DISABL": 18.39, "RPL_THEMES": 0.3785, "SPL_THEMES": 2.659, "source": "SIMULATED_FALLBACK", "is_simulated": 1}}, {"type": "Feature", "geometry": {"type": "Polygon", "coordinates": [[[-117.97500000000001, 34.414], [-117.88291666666667, 34.414], [-117.88291666666667, 34.5908], [-117.97500000000001, 34.5908], [-117.97500000000001, 34.414]]]}, "properties": {"GEOID": "SIM06037000105", "FIPS": "06037000105", "LOCATION": "Simulated LA County tract 105", "E_TOTPOP": 3293, "EP_POV150": 4.82, "EP_UNEMP": 17.93, "EP_AGE65": 26.68, "EP_DISABL": 15.75, "RPL_THEMES": 0.4475, "SPL_THEMES": 1.198, "source": "SIMULATED_FALLBACK", "is_simulated": 1}}, {"type": "Feature", "geometry": {"type": "Polygon", "coordinates": [[[-117.86666666666667, 34.414], [-117.77458333333334, 34.414], [-117.77458333333334, 34.5908], [-117.86666666666667, 34.5908], [-117.86666666666667, 34.414]]]}, "properties": {"GEOID": "SIM06037000106", "FIPS": "06037000106", "LOCATION": "Simulated LA County tract 106", "E_TOTPOP": 1689, "EP_POV150": 9.93, "EP_UNEMP": 7.07, "EP_AGE65": 15.6, "EP_DISABL": 6.19, "RPL_THEMES": 0.8357, "SPL_THEMES": 4.392, "source": "SIMULATED_FALLBACK", "is_simulated": 1}}, {"type": "Feature", "geometry": {"type": "Polygon", "coordinates": [[[-117.75833333333334, 34.414], [-117.66625, 34.414], [-117.66625, 34.5908], [-117.75833333333334, 34.5908], [-117.75833333333334, 34.414]]]}, "properties": {"GEOID": "SIM06037000107", "FIPS": "06037000107", "LOCATION": "Simulated LA County tract 107", "E_TOTPOP": 2185, "EP_POV150": 17.45, "EP_UNEMP": 13.16, "EP_AGE65": 16.18, "EP_DISABL": 8.35, "RPL_THEMES": 0.6346, "SPL_THEMES": 4.329, "source": "SIMULATED_FALLBACK", "is_simulated": 1}}, {"type": "Feature", "geometry": {"type": "Polygon", "coordinates": [[[-118.95, 34.622], [-118.85791666666667, 34.622], [-118.85791666666667, 34.7988], [-118.95, 34.7988], [-118.95, 34.622]]]}, "properties": {"GEOID": "SIM06037000108", "FIPS": "06037000108", "LOCATION": "Simulated LA County tract 108", "E_TOTPOP": 5185, "EP_POV150": 15.85, "EP_UNEMP": 16.56, "EP_AGE65": 19.52, "EP_DISABL": 21.21, "RPL_THEMES": 0.5971, "SPL_THEMES": 5.415, "source": "SIMULATED_FALLBACK", "is_simulated": 1}}, {"type": "Feature", "geometry": {"type": "Polygon", "coordinates": [[[-118.84166666666667, 34.622], [-118.74958333333333, 34.622], [-118.74958333333333, 34.7988], [-118.84166666666667, 34.7988], [-118.84166666666667, 34.622]]]}, "properties": {"GEOID": "SIM06037000109", "FIPS": "06037000109", "LOCATION": "Simulated LA County tract 109", "E_TOTPOP": 1858, "EP_POV150": 29.84, "EP_UNEMP": 3.03, "EP_AGE65": 20.49, "EP_DISABL": 13.89, "RPL_THEMES": 0.2757, "SPL_THEMES": 11.969, "source": "SIMULATED_FALLBACK", "is_simulated": 1}}, {"type": "Feature", "geometry": {"type": "Polygon", "coordinates": [[[-118.73333333333333, 34.622], [-118.64125, 34.622], [-118.64125, 34.7988], [-118.73333333333333, 34.7988], [-118.73333333333333, 34.622]]]}, "properties": {"GEOID": "SIM06037000110", "FIPS": "06037000110", "LOCATION": "Simulated LA County tract 110", "E_TOTPOP": 4917, "EP_POV150": 14.21, "EP_UNEMP": 10.34, "EP_AGE65": 14.19, "EP_DISABL": 15.47, "RPL_THEMES": 0.2732, "SPL_THEMES": 11.233, "source": "SIMULATED_FALLBACK", "is_simulated": 1}}, {"type": "Feature", "geometry": {"type": "Polygon", "coordinates": [[[-118.625, 34.622], [-118.53291666666667, 34.622], [-118.53291666666667, 34.7988], [-118.625, 34.7988], [-118.625, 34.622]]]}, "properties": {"GEOID": "SIM06037000111", "FIPS": "06037000111", "LOCATION": "Simulated LA County tract 111", "E_TOTPOP": 2150, "EP_POV150": 8.85, "EP_UNEMP": 5.64, "EP_AGE65": 19.32, "EP_DISABL": 9.69, "RPL_THEMES": 0.4448, "SPL_THEMES": 7.924, "source": "SIMULATED_FALLBACK", "is_simulated": 1}}, {"type": "Feature", "geometry": {"type": "Polygon", "coordinates": [[[-118.51666666666667, 34.622], [-118.42458333333333, 34.622], [-118.42458333333333, 34.7988], [-118.51666666666667, 34.7988], [-118.51666666666667, 34.622]]]}, "properties": {"GEOID": "SIM06037000112", "FIPS": "06037000112", "LOCATION": "Simulated LA County tract 112", "E_TOTPOP": 5609, "EP_POV150": 24.17, "EP_UNEMP": 8.3, "EP_AGE65": 5.81, "EP_DISABL": 14.63, "RPL_THEMES": 0.3522, "SPL_THEMES": 6.25, "source": "SIMULATED_FALLBACK", "is_simulated": 1}}, {"type": "Feature", "geometry": {"type": "Polygon", "coordinates": [[[-118.40833333333333, 34.622], [-118.31625, 34.622], [-118.31625, 34.7988], [-118.40833333333333, 34.7988], [-118.40833333333333, 34.622]]]}, "properties": {"GEOID": "SIM06037000113", "FIPS": "06037000113", "LOCATION": "Simulated LA County tract 113", "E_TOTPOP": 1543, "EP_POV150": 29.73, "EP_UNEMP": 10.36, "EP_AGE65": 23.48, "EP_DISABL": 19.22, "RPL_THEMES": 0.2964, "SPL_THEMES": 1.993, "source": "SIMULATED_FALLBACK", "is_simulated": 1}}, {"type": "Feature", "geometry": {"type": "Polygon", "coordinates": [[[-118.30000000000001, 34.622], [-118.20791666666668, 34.622], [-118.20791666666668, 34.7988], [-118.30000000000001, 34.7988], [-118.30000000000001, 34.622]]]}, "properties": {"GEOID": "SIM06037000114", "FIPS": "06037000114", "LOCATION": "Simulated LA County tract 114", "E_TOTPOP": 7449, "EP_POV150": 26.42, "EP_UNEMP": 8.0, "EP_AGE65": 26.17, "EP_DISABL": 14.54, "RPL_THEMES": 0.3003, "SPL_THEMES": 2.713, "source": "SIMULATED_FALLBACK", "is_simulated": 1}}, {"type": "Feature", "geometry": {"type": "Polygon", "coordinates": [[[-118.19166666666668, 34.622], [-118.09958333333334, 34.622], [-118.09958333333334, 34.7988], [-118.19166666666668, 34.7988], [-118.19166666666668, 34.622]]]}, "properties": {"GEOID": "SIM06037000115", "FIPS": "06037000115", "LOCATION": "Simulated LA County tract 115", "E_TOTPOP": 4202, "EP_POV150": 11.07, "EP_UNEMP": 8.12, "EP_AGE65": 10.11, "EP_DISABL": 20.21, "RPL_THEMES": 0.3541, "SPL_THEMES": 11.483, "source": "SIMULATED_FALLBACK", "is_simulated": 1}}, {"type": "Feature", "geometry": {"type": "Polygon", "coordinates": [[[-118.08333333333334, 34.622], [-117.99125000000001, 34.622], [-117.99125000000001, 34.7988], [-118.08333333333334, 34.7988], [-118.08333333333334, 34.622]]]}, "properties": {"GEOID": "SIM06037000116", "FIPS": "06037000116", "LOCATION": "Simulated LA County tract 116", "E_TOTPOP": 3985, "EP_POV150": 4.98, "EP_UNEMP": 8.73, "EP_AGE65": 6.82, "EP_DISABL": 20.05, "RPL_THEMES": 0.7651, "SPL_THEMES": 4.077, "source": "SIMULATED_FALLBACK", "is_simulated": 1}}, {"type": "Feature", "geometry": {"type": "Polygon", "coordinates": [[[-117.97500000000001, 34.622], [-117.88291666666667, 34.622], [-117.88291666666667, 34.7988], [-117.97500000000001, 34.7988], [-117.97500000000001, 34.622]]]}, "properties": {"GEOID": "SIM06037000117", "FIPS": "06037000117", "LOCATION": "Simulated LA County tract 117", "E_TOTPOP": 1168, "EP_POV150": 31.75, "EP_UNEMP": 4.8, "EP_AGE65": 8.96, "EP_DISABL": 16.77, "RPL_THEMES": 0.1729, "SPL_THEMES": 9.869, "source": "SIMULATED_FALLBACK", "is_simulated": 1}}, {"type": "Feature", "geometry": {"type": "Polygon", "coordinates": [[[-117.86666666666667, 34.622], [-117.77458333333334, 34.622], [-117.77458333333334, 34.7988], [-117.86666666666667, 34.7988], [-117.86666666666667, 34.622]]]}, "properties": {"GEOID": "SIM06037000118", "FIPS": "06037000118", "LOCATION": "Simulated LA County tract 118", "E_TOTPOP": 1784, "EP_POV150": 6.32, "EP_UNEMP": 6.09, "EP_AGE65": 23.45, "EP_DISABL": 7.25, "RPL_THEMES": 0.1798, "SPL_THEMES": 11.574, "source": "SIMULATED_FALLBACK", "is_simulated": 1}}, {"type": "Feature", "geometry": {"type": "Polygon", "coordinates": [[[-117.75833333333334, 34.622], [-117.66625, 34.622], [-117.66625, 34.7988], [-117.75833333333334, 34.7988], [-117.75833333333334, 34.622]]]}, "properties": {"GEOID": "SIM06037000119", "FIPS": "06037000119", "LOCATION": "Simulated LA County tract 119", "E_TOTPOP": 7329, "EP_POV150": 18.0, "EP_UNEMP": 2.07, "EP_AGE65": 26.48, "EP_DISABL": 13.16, "RPL_THEMES": 0.9106, "SPL_THEMES": 4.551, "source": "SIMULATED_FALLBACK", "is_simulated": 1}}]}